{
	"data": [
	{
		"name": "Bijl Architecture",
		"url": "http://www.bijlarchitecture.com.au/",
		"address": "7/100 Penshurst St, Willoughby",
		"zip": "2068",
		"phone": "+61 2 9958 7950"
	},
	{
		"name": "Melocco and Moore Architects",
		"url": "http://www.meloccomoore.com.au/",
		"address": "204/59 Great Buckingham St, Redfern",
		"zip": "2016",
		"phone": "+61 2 9212 6111"
	},
	{
		"name": "MCK Architects",
		"url": "http://mckarchitects.com/",
		"address": "1/91 Campbell St, Surry Hills",
		"zip": "2010",
		"phone": "+61 2 9211 4146"
	},
	{
		"name": "SMART DESIGN STUDIO",
		"url": "http://www.smartdesignstudio.com/",
		"address": "14 Stokes Ave, Alexandria",
		"zip": "2015",
		"phone": "+61 2 8332 4333"
	},
	{
		"name": "Anderson Architecture",
		"url": "https://andersonarchitecture.com.au/",
		"address": "101-4/14 Buckingham St, Surry Hills",
		"zip": "2010",
		"phone": "+61 2 9319 0224"
	},
	{
		"name": "CplusC Architectural Workshop",
		"url": "http://www.cplusc.com.au/",
		"address": "62 Ivy St, Darlington",
		"zip": "2008",
		"phone": "+61 2 9690 2211"
	},
	{
		"name": "WMK Architecture",
		"url": "http://wmkarchitecture.com/",
		"address": "364 Kent St, Sydney",
		"zip": "2000",
		"phone": "+61 2 9299 0401"
	},
	{
		"name": "WATERSHED DESIGN Architects Manly | Northern Beaches",
		"url": "http://www.watersheddesign.com.au/",
		"address": "1/167 Pittwater Rd, Sydney",
		"zip": "2095",
		"phone": "+61 2 9977 1076"
	},
	{
		"name": "Luigi Rosselli Architects",
		"url": "http://www.luigirosselli.com/",
		"address": "122 Buckingham St, Surry Hills",
		"zip": "2010",
		"phone": "+61 2 9281 1498"
	},
	{
		"name": "Chateau Architects + Builders",
		"url": "https://www.chateau.com.au/",
		"address": "56 Cecil Ave, Castle Hill",
		"zip": "2154",
		"phone": "+61 2 9634 6888"
	}
	
	]
}