{
	"data": [
	{
		"name": "Sydney CBD Dentistry",
		"url": "https://www.sydneycbddentistry.com.au/",
		"address": "302/70 Pitt St",
		"zip": "2000",
		"phone": "+61 2 8090 1105"
	},
	{
		"name": "Sydney CBD Dental",
		"url": "https://www.sydneycbddental.com.au/",
		"address": "1/300 George St",
		"zip": "2000",
		"phone": "+61 2 9232 3900"
	},
	{
		"name": "Sydney Dental Health",
		"url": "",
		"address": "5/1 Shelley St",
		"zip": "2000",
		"phone": "+61 2 9299 5345"
	},
	{
		"name": "No Gaps Dental - Dentist Sydney CBD Wynyard",
		"url": "https://www.nogapsdental.com/location/dentist-wynyard",
		"address": "Level 2/283 George St",
		"zip": "2000",
		"phone": "+61 2 8007 6705"
	},
	{
		"name": "Rainbow Dental Practice",
		"url": "https://www.rainbowdental.com.au/",
		"address": "5/7 Murray Rose Ave, Sydney Olympic Park",
		"zip": "2127",
		"phone": "+61 2 8021 5285"
	},
	{
		"name": "Clear Dental Sydney CBD | 牙醫",
		"url": "http://www.cleardental.com.au/sydney-dentist.html",
		"address": "101/127 York St",
		"zip": "2000",
		"phone": "+61 2 9283 6220"
	},
	{
		"name": "Pitt St Dental Centre",
		"url": "https://www.pittstdentalcentre.com.au/",
		"address": "Level 2/70 Pitt St",
		"zip": "2000",
		"phone": "+61 2 9223 4767"
	},
	{
		"name": "Emergency Dentist Sydney",
		"url": "https://www.emergencydentistsydney.com.au/",
		"address": "Suite 601A/185 Elizabeth St",
		"zip": "2000",
		"phone": "+61 2 8283 6493"
	},
	{
		"name": "Sydney City Dentist",
		"url": "http://www.sydneycitydentist.com.au/",
		"address": "Suite 1-2, 10/229 Macquarie St",
		"zip": "2000",
		"phone": "+61 2 9232 2814"
	},
	{
		"name": "Spa Dental Sydney CBD",
		"url": "https://www.spadentalsydneycbd.com.au/",
		"address": "Suite 2 level 3/64 Castlereagh St",
		"zip": "2000",
		"phone": "+61 2 9221 8348"
	}

	
	]
}	
