{
	"data": [
	{
		"name": "Sydney Criminal Lawyers",
		"url": "https://www.sydneycriminallawyers.com.au/",
		"address": "Museum Towers, 503/267 Castlereagh St",
		"zip": "2000",
		"phone": "+61 2 9261 8881"
	},
	{
		"name": "Sydney Criminal & Traffic Lawyers",
		"url": "https://sydneycriminalandtrafficlawyers.com.au/",
		"address": "1/299 Elizabeth St",
		"zip": "2000",
		"phone": "+61 2 8251 0044"
	},
	{
		"name": "Go To Court Lawyers",
		"url": "https://www.gotocourt.com.au/nsw/sydney-lawyers",
		"address": "17/327 Pitt St",
		"zip": "2000",
		"phone": "+61 2 7903 2898"
	},
	{
		"name": "O'Sullivan Legal",
		"url": "https://www.osullivanlegal.com.au/",
		"address": "Suite 15, Level 2/123 Clarence St",
		"zip": "2000",
		"phone": "+61 2 8079 5200"
	},
	{
		"name": "Shine Lawyers Sydney City",
		"url": "https://www.shine.com.au/locations/nsw/sydney-cbd/",
		"address": "6/299 Elizabeth St",
		"zip": "2000",
		"phone": "+61 2 8754 7200"
	},
	{
		"name": "Sydney-Lawyers.com",
		"url": "http://www.sydney-lawyers.com/",
		"address": "Suite 85/3 Macquarie St",
		"zip": "2000",
		"phone": "+61 497 494 080"
	},
	{
		"name": "Criminal Lawyers Sydney George Sten & Co",
		"url": "https://criminal-lawyer.com.au/",
		"address": "Suite C4, Ground Floor/185 Elizabeth St",
		"zip": "2000",
		"phone": "+61 2 9261 8640"
	},
	{
		"name": "Unified Family Lawyers",
		"url": "https://www.unifiedlawyers.com.au/",
		"address": "Level 6, Suite 2/287 Elizabeth St",
		"zip": "2000",
		"phone": "+61 1300 667 461"
	},
	{
		"name": "Taylor and Scott Lawyers Sydney",
		"url": "http://www.taylorandscott.com.au/contact/",
		"address": "12/276 Pitt St",
		"zip": "2000",
		"phone": "+61 1800 600 664"
	},
	{
		"name": "Platinum Lawyers & Conveyancers",
		"url": "http://platinumlawyers.com.au/",
		"address": "Level 14/77 King St",
		"zip": "2000",
		"phone": "+61 2 8084 2764"
	}
	
	
	]
}	
