{
  "data": [
    {
      "name": "Kapsalis Associates, PC",
      "url": "http://www.kapsalislaw.com/",
      "zip": "11357"
    },
    {
      "name": "Stacy Veloudios, Attorney At Law",
      "phone": "+1 347-690-1904",
      "zip": "11357"
    },
    {
      "name": "Albert Chan Law Offices",
      "address": "Whitestone, NY, United States · In World Plaza",
      "phone": "+1 718-799-1000",
      "url": "http://kitchanlaw.com/",
      "zip": "11357"
    },
    {
      "name": "Birnbaum & Skedelsky",
      "phone": "+1 718-767-6800",
      "zip": "11357"
    },
    {
      "name": "Law Office of Stephen A Strauss",
      "address": "1248 Clintonville St Suite A · In Clintonville Plaza",
      "phone": "+1 718-767-6100",
      "url": "https://www.stephenstrausslaw.com/",
      "zip": "11357"
    },
    {
      "name": "The Law Offices of George A. Kosnik",
      "address": "Whitestone, NY, United States",
      "phone": "+1 718-746-9777",
      "url": "http://www.georgekosnik.com/",
      "zip": "11357"
    },
    {
      "name": "Regan Joseph G",
      "address": "Whitestone, NY, United States",
      "phone": "+1 718-767-1746",
      "zip": "11357"
    },
    {
      "name": "Dennis J Ring Esq",
      "address": "14829 Cross Island Pkwy",
      "phone": "+1 718-357-1040",
      "zip": "11357"
    },
    {
      "name": "Anadel Canale PC",
      "address": "150-52 14th Ave",
      "phone": "+1 631-414-7040",
      "url": "http://www.anadelcanale.com/",
      "zip": "11357"
    },
    {
      "name": "Vallone & Vallone Llp",
      "url": "http://vallonelaw.com/",
      "zip": "11358"
    },
    {
      "name": "Jason Sackoor, Esq.",
      "phone": "+1 718-767-3333",
      "url": "http://sackoor.com/",
      "zip": "11357"
    },
    {
      "name": "Dorsey & De Riso Attorney At Law",
      "phone": "+1 718-746-7900",
      "url": "http://www.willstrustsestatesqueens.com/",
      "zip": "11357"
    },
    {
      "name": "James W. Neilson, Esq",
      "phone": "+1 718-357-3400",
      "url": "https://www.neilsonslaw.com/",
      "zip": "11357"
    }
  ]
}