{
  "data": [
    {
      "name": "Kidzcare Pediatrics PC Charlotte - Northside",
      "address": "416 McCullough Dr # 140",
      "phone": "+1 704-717-3383",
      "url": "http://kidzcare.com/",
      "zip": "28262"
    },
    {
      "name": "Novant Health Elizabeth Pediatrics",
      "address": "2630 E 7th St Ste. 101 · In Eastover Medical Park III",
      "phone": "+1 704-384-1000",
      "url": "https://www.nhelizabethpediatrics.org/?utm_source=maps.google.com&utm_medium=organic&utm_campaign=GMB&utm_content=MG-077&ecid=gmblocmg077",
      "zip": "28204"
    },
    {
      "name": "Novant Health Pediatrics South End",
      "address": "2400 South Blvd Suite 103",
      "phone": "+1 704-774-3024",
      "url": "https://www.nhpediatricssouthend.org/?utm_source=maps.google.com&utm_medium=organic&utm_campaign=GMB&utm_content=MG-276&ecid=gmblocmg276",
      "zip": "28203"
    },
    {
      "name": "Kidzcare Pediatrics PC - Charlotte Amity NC",
      "address": "5244 N Sharon Amity Rd B",
      "phone": "+1 704-536-0073",
      "url": "http://kidzcarepediatrics.com/locations/charlotte-nc/",
      "zip": "28215"
    },
    {
      "name": "Kidzcare Pediatrics PC - Charlotte Eastover",
      "address": "2620 E 7th St #100",
      "phone": "+1 704-332-7141",
      "url": "http://kidzcarepediatrics.com/locations/charlotte-eastover/",
      "zip": "28204"
    },
    {
      "name": "Atrium Health Levine Children's Charlotte Pediatric Clinic",
      "address": "4501 Cameron Valley Pkwy #100",
      "phone": "+1 704-367-7400",
      "url": "https://atriumhealth.org/medical-services/childrens-services/locations/detail/atrium-health-levine-childrens-charlotte-pediatric-clinic-southpark?utm_campaign=Homepage&utm_source=GMB&utm_medium=organic",
      "zip": "28211"
    },
    {
      "name": "Pineville Pediatrics PLLC",
      "address": "10700 Kettering Dr",
      "phone": "+1 704-540-3036",
      "url": "http://www.pinevillepediatrics.com/",
      "zip": "28226"
    },
    {
      "name": "Novant Health Eastover Pediatrics",
      "address": "517 S Sharon Amity Rd",
      "phone": "+1 704-384-8800",
      "url": "https://www.nheastoverpediatrics.org/?utm_source=maps.google.com&utm_medium=organic&utm_campaign=GMB&utm_content=MG-076&ecid=gmblocmg076",
      "zip": "28211"
    },
    {
      "name": "Novant Health Dilworth Pediatrics",
      "address": "1315 East Blvd #280",
      "phone": "+1 704-384-1866",
      "url": "https://www.nhdilworthpediatrics.org/?utm_source=maps.google.com&utm_medium=organic&utm_campaign=GMB&utm_content=MG-073&ecid=gmblocmg073",
      "zip": "28203"
    },
    {
      "name": "MidCarolina Pediatrics, P.A.",
      "address": "2607 W Arrowood Rd",
      "phone": "+1 704-588-0232",
      "url": "http://www.midcarolinaped.com/",
      "zip": "28273"
    },
    {
      "name": "Novant Health Pediatrics SouthPark",
      "address": "6324 Fairview Rd Suite 350",
      "phone": "+1 704-384-8600",
      "url": "https://www.nhpediatricssouthpark.org/?utm_source=maps.google.com&utm_medium=organic&utm_campaign=GMB&utm_content=MG-277&ecid=gmblocmg277",
      "zip": "28210"
    },
    {
      "name": "Atrium Health Levine Children's Charlotte Pediatric Clinic",
      "address": "6235 Blakeney Park Dr #100",
      "phone": "+1 704-512-5060",
      "url": "https://atriumhealth.org/medical-services/childrens-services/locations/detail/atrium-health-levine-childrens-charlotte-pediatric-clinic-blakeney?utm_campaign=Homepage&utm_source=GMB&utm_medium=organic",
      "zip": "28277"
    },
    {
      "name": "Novant Health Pediatrics South Ballantyne",
      "address": "16139 Lancaster Hwy #110",
      "phone": "+1 704-384-1440",
      "url": "https://www.nhpediatricssouthballantyne.org/?utm_source=maps.google.com&utm_medium=organic&utm_campaign=GMB&utm_content=MG-275&ecid=gmblocmg275",
      "zip": "28277"
    },
    {
      "name": "Novant Health Ballantyne Pediatrics",
      "address": "14215 Ballantyne Corporate Pl #130",
      "phone": "+1 704-384-1950",
      "url": "https://www.nhballantynepediatrics.org/?utm_source=maps.google.com&utm_medium=organic&utm_campaign=GMB&utm_content=MG-008&ecid=gmblocmg008",
      "zip": "28277"
    },
    {
      "name": "Atrium Health Levine Children's Arboretum Pediatrics",
      "address": "7800 Providence Rd #203",
      "phone": "+1 704-512-2610",
      "url": "https://atriumhealth.org/medical-services/childrens-services/locations/detail/atrium-health-levine-childrens-arboretum-pediatrics?utm_campaign=Homepage&utm_source=GMB&utm_medium=organic",
      "zip": "28226"
    },
    {
      "name": "North Charlotte Pediatrics",
      "address": "416 McCullough Dr # 140",
      "phone": "+1 704-717-3383",
      "url": "http://www.northcharlottepeds.com/",
      "zip": "28262"
    },
    {
      "name": "Atrium Health Levine Children's Mountain Island Pediatrics",
      "address": "9908 Couloak Dr #103",
      "phone": "+1 704-801-2025",
      "url": "https://atriumhealth.org/medical-services/childrens-services/locations/detail/atrium-health-levine-childrens-mountain-island-pediatrics?utm_campaign=Homepage&utm_source=GMB&utm_medium=organic",
      "zip": "28216"
    },
    {
      "name": "Atrium Health Levine Children's University Pediatrics",
      "address": "101 E W.T. Harris Blvd #1121 · In the Carolinas Medical Center-University",
      "phone": "+1 704-717-2000",
      "url": "https://atriumhealth.org/medical-services/childrens-services/locations/detail/atrium-health-levine-childrens-university-pediatrics?utm_campaign=Homepage&utm_source=GMB&utm_medium=organic",
      "zip": "28262"
    },
    {
      "name": "Novant Health Pediatrics Ardrey Kell",
      "address": "8169 Ardrey Kell Rd · In The Fountains",
      "phone": "+1 704-542-5540",
      "url": "https://www.nhpediatricsardreykell.org/?utm_source=maps.google.com&utm_medium=organic&utm_campaign=GMB&utm_content=MG-472&ecid=gmblocmg472",
      "zip": "28277"
    },
    {
      "name": "Carmel Pediatrics, PA",
      "address": "7825 Ballantyne Commons Pkwy",
      "phone": "+1 704-752-2000",
      "url": "http://www.carmelpediatricspa.com/",
      "zip": "28277"
    }
  ]
}