{
  "data": [
    {
      "name": "Web Design Charlotte",
      "address": "Fort Mill, SC, United States",
      "phone": "+1 704-323-7608",
      "url": "https://webdesigncharlotte.net/",
      "zip": "29715"
    },
    {
      "name": "Lazarus Charlotte | Web Design & Digital Marketing Experts",
      "address": "615 S College St #10th · In Stonewall",
      "phone": "+1 704-291-8155",
      "url": "https://lazaruscharlotte.com/",
      "zip": "28202"
    },
    {
      "name": "CCP Web Design",
      "address": "1230 W Morehead St #106",
      "phone": "+1 704-887-3271",
      "url": "https://www.ccpwebdesign.com/",
      "zip": "28208"
    },
    {
      "name": "Bellaworks",
      "address": "3120 N Davidson St STE 200",
      "phone": "+1 704-375-0831",
      "url": "http://bellaworksweb.com/",
      "zip": "28205"
    },
    {
      "name": "Charlotte Web Design Agency - IT Solutions Tonight, LLC",
      "address": "9501 Saddle Run Trail",
      "url": "https://www.itsolutionstonight.com/",
      "zip": "28269"
    },
    {
      "name": "Web Design Charlotte",
      "phone": "+1 704-405-2907",
      "url": "http://www.charlottewebdesign.com/",
      "zip": "28210"
    },
    {
      "name": "Web Design Charlotte NC",
      "address": "1408 East Blvd UNIT 820 · In Dilworth Gardens",
      "phone": "+1 704-870-4205",
      "url": "https://elev8m.com/charlotte-nc",
      "zip": "28203"
    },
    {
      "name": "WEBPRO | Charlotte Business Web Design | Since 1994 - Affordable Web Marketing",
      "address": "2201 Coronation Blvd · In US Social Security Administration - Phone Service Only",
      "phone": "+1 704-814-7277",
      "url": "https://www.webpro.com/",
      "zip": "28227"
    },
    {
      "name": "STORY Web Design & Marketing Agency",
      "address": "401 N Tryon St",
      "phone": "+1 980-337-4250",
      "url": "https://storyagency.co/",
      "zip": "28202"
    },
    {
      "name": "Black Bear Design",
      "address": "15720 Brixham Hill Ave #300",
      "phone": "+1 704-210-8915",
      "url": "https://www.blackbeardesign.com/charlotte/",
      "zip": "28277"
    },
    {
      "name": "Triad Web Design Service, Inc - Charlotte Division",
      "url": "https://www.triadwebservice.com/areas-served/nc/Charlotte/"
    },
    {
      "name": "Lucid Crew Web Design - Charlotte",
      "phone": "+1 704-666-4554",
      "url": "https://www.lucidcrew.com/charlotte-web-design/"
    },
    {
      "name": "Bunga Web Design",
      "phone": "+1 980-253-4625",
      "url": "http://bungaweb.com/",
      "zip": "28277"
    },
    {
      "name": "Web Symphonies",
      "address": "1115 E Morehead St #201",
      "phone": "+1 704-336-9113",
      "url": "http://www.websymphonies.com/",
      "zip": "28204"
    },
    {
      "name": "Plenty of Pixels – Charlotte Web Design",
      "url": "https://plentyofpixels.com/locations/web-design-charlotte-nc/#utm_source=google&utm_medium=organic&utm_campaign=gmb&utm_term=Web%20Design&utm_content=Charlotte,NC"
    },
    {
      "name": "Michelle Jones Creative Web Design",
      "address": "8326-407 Pineville-Matthews Rd #473072 · In McMullen Creek Market",
      "url": "https://www.michellejonescreative.com/",
      "zip": "28247"
    },
    {
      "name": "Khaus Creative",
      "phone": "+1 704-335-0736",
      "url": "https://khaus.com/",
      "zip": "28205"
    },
    {
      "name": "Mark Marzeotti Web Design",
      "url": "https://markmarzeotti.com/"
    }
  ]
}