{
  "data": [
    {
      "name": "Selldorf Architects",
      "address": "860 Broadway FL 2",
      "phone": "+1 929-352-8131",
      "url": "http://www.selldorf.com/",
      "zip": "10003"
    },
    {
      "name": "ODA",
      "address": "250 PARK AVENUE SOUTH, THIRD FLOOR 3rd Floor",
      "phone": "+1 646-478-7455",
      "url": "http://www.oda-architecture.com/",
      "zip": "10003"
    },
    {
      "name": "Atelier New York Architecture",
      "address": "Long Island City, NY, United States",
      "phone": "+1 718-707-9550",
      "url": "http://atelierny.com/",
      "zip": "11101"
    },
    {
      "name": "Morris Adjmi Architects",
      "address": "60 Broad St 32nd floor",
      "phone": "+1 212-982-2020",
      "url": "http://www.ma.com/",
      "zip": "10004"
    },
    {
      "name": "1100 Architect",
      "address": "475 10th Ave",
      "phone": "+1 212-645-1011",
      "url": "http://www.1100architect.com/",
      "zip": "10018"
    },
    {
      "name": "SHoP Architects",
      "address": "233 Broadway #11 · In The Woolworth Building",
      "phone": "+1 212-889-9005",
      "url": "http://www.shoparc.com/",
      "zip": "10279"
    },
    {
      "name": "GRADE Architecture + Interior Design",
      "address": "180 Varick St #916",
      "phone": "+1 212-645-9113",
      "url": "https://gradenewyork.com/",
      "zip": "10014"
    },
    {
      "name": "New York Design Architects, LLP",
      "address": "175 W Broadway",
      "phone": "+1 212-680-0140",
      "url": "https://www.newyorkdesign.com/",
      "zip": "10013"
    },
    {
      "name": "IA | Interior Architects",
      "address": "100 Broadway · In 100 Broadway",
      "phone": "+1 212-682-6909",
      "url": "https://interiorarchitects.com/find-ia/new-york",
      "zip": "10005"
    },
    {
      "name": "ZGF Architects | New York",
      "address": "39 W 19th St 12th Floor",
      "phone": "+1 212-624-4754",
      "url": "https://www.zgf.com/",
      "zip": "10011"
    },
    {
      "name": "Ennead Architects",
      "address": "1 World Trade Center 40th floor · In Westfield World Trade Center",
      "phone": "+1 212-807-7171",
      "url": "http://www.ennead.com/",
      "zip": "10007"
    },
    {
      "name": "Marvel Architects",
      "address": "145 Hudson St",
      "phone": "+1 212-616-0420",
      "url": "http://marvelarchitects.com/",
      "zip": "10013"
    },
    {
      "name": "Studios Architecture",
      "address": "588 Broadway # 702",
      "phone": "+1 212-431-4512",
      "url": "https://studios.com/",
      "zip": "10012"
    },
    {
      "name": "Handel Architects LLP",
      "address": "120 Broadway 6th Fl · In the Equitable Building",
      "phone": "+1 212-595-4112",
      "url": "http://handelarch.com/",
      "zip": "10271"
    },
    {
      "name": "COOKFOX Architects, DPC",
      "address": "250 W 57th St 17th floor · In 59 St - Columbus Circle",
      "phone": "+1 212-477-0287",
      "url": "http://www.cookfox.com/",
      "zip": "10107"
    },
    {
      "name": "AXIS MUNDI Architects Interior Designers NYC",
      "address": "315 W 39th St #805",
      "phone": "+1 212-643-2608",
      "url": "http://axismundi.com/",
      "zip": "10018"
    },
    {
      "name": "Peter Pennoyer Architects",
      "address": "136 Madison Ave",
      "phone": "+1 212-779-9765",
      "url": "http://www.ppapc.com/",
      "zip": "10016"
    },
    {
      "name": "Gertler & Wente Architects LLP",
      "address": "145 W 30th St # 11",
      "phone": "+1 212-273-9888",
      "url": "https://www.gwarch.com/?utm_source=knowledge-card-website",
      "zip": "10001"
    },
    {
      "name": "MdeAS Architects",
      "address": "80 Broad St",
      "phone": "+1 212-809-0100",
      "url": "http://mdeas.com/",
      "zip": "10004"
    }
  ]
}