{
  "data": [
    {
      "name": "NY State Nurses Association",
      "address": "131 W 33rd St",
      "phone": "+1 212-785-0157",
      "url": "http://www.nysna.org/",
      "zip": "10001"
    },
    {
      "name": "New York Professional Nurses Union",
      "address": "241 E 75th St",
      "phone": "+1 212-988-5565",
      "url": "http://www.nypnu.org/",
      "zip": "10021"
    },
    {
      "name": "Greater New York Nursing",
      "address": "6424 18th Ave",
      "phone": "+1 212-687-7464",
      "url": "http://gnyservices.com/",
      "zip": "11204"
    },
    {
      "name": "New York Nursing Agency Inc",
      "address": "180 Lexington Ave",
      "phone": "+1 212-252-1660",
      "zip": "10016"
    },
    {
      "name": "Jill Tucker Nursing Services",
      "phone": "+1 212-431-3029",
      "url": "https://jilltuckernursing.com/"
    },
    {
      "name": "Visiting Nurse Service of New York",
      "phone": "+1 866-632-2557",
      "url": "https://www.vnsny.org/"
    },
    {
      "name": "ATC Healthcare Services New York - Nurse Staffing Agency",
      "url": "http://www.atchealthcarenewyork.com/",
      "zip": "10118"
    },
    {
      "name": "Exclusive Nursing Staff Inc.",
      "address": "Brooklyn, NY, United States",
      "phone": "+1 718-484-8280",
      "url": "http://www.exclusivenursingstaff.com/",
      "zip": "11219"
    },
    {
      "name": "First Step Registered Nursing",
      "url": "http://firststepnursing.com/",
      "zip": "10019"
    },
    {
      "name": "Adele Poston Nurses Registry",
      "address": "16 E 79th St # G-4",
      "phone": "+1 212-879-7474",
      "zip": "10075"
    },
    {
      "name": "Visiting Nurse Services of New York",
      "address": "The Bronx, NY, United States · In The Hutchinson Metro Center a Simone Development Companies Property",
      "phone": "+1 800-675-0391",
      "zip": "10461"
    },
    {
      "name": "ACCESS Nursing Private Duty Services",
      "url": "http://accessnursing.com/",
      "zip": "10016"
    },
    {
      "name": "Wagner Nurses and Medical Personnel Agency, Inc.",
      "url": "http://www.wagnernurse.com/",
      "zip": "10022"
    },
    {
      "name": "Philippine Nurses Association of New York, Inc.",
      "url": "http://www.pnanewyork.org/"
    },
    {
      "name": "Brooklyn Nurses Association",
      "url": "https://www.bnanyc.org/contact",
      "zip": "11234"
    },
    {
      "name": "International Nurses Association",
      "address": "410 Park Ave",
      "phone": "+1 877-447-8360",
      "url": "http://inanurse.org/",
      "zip": "10022"
    },
    {
      "name": "First Step Registered Nursing",
      "url": "http://www.firststepnursing.com/",
      "zip": "10016"
    },
    {
      "name": "EliteNursing ®",
      "address": "347 5th Ave #1402 · Near the Empire State Building",
      "phone": "+1 646-771-3258",
      "url": "http://elitenursingny.com/",
      "zip": "10016"
    }
  ]
}