{
  "data": [
    {
      "name": "New York Physicians",
      "address": "E 60th St",
      "url": "https://newyorkphysicians.com/",
      "zip": "10022"
    },
    {
      "name": "Primary Care Doctor in Midtown Manhattan",
      "address": "274 Madison Ave #705",
      "phone": "+1 212-696-5900",
      "url": "http://medicalclinicny.com/",
      "zip": "10016"
    },
    {
      "name": "Best Primary Care Doctors NYC",
      "address": "51 E 25th St #444 · Near Madison Square Park",
      "phone": "+1 212-843-9609",
      "url": "http://www.manhattanspecialtycare.com/",
      "zip": "10010"
    },
    {
      "name": "Wimbley Elizabeth MD",
      "address": "Level, 211 E 51st St",
      "phone": "+1 212-398-1709",
      "url": "http://www.medicalofficesofmanhattan.com/",
      "zip": "10022"
    },
    {
      "name": "New York Physicians LLP: Nancy A. Jasper, MD",
      "address": "635 Madison Ave",
      "phone": "+1 212-317-4565",
      "url": "https://newyorkphysicians.com/",
      "zip": "10022"
    },
    {
      "name": "Manhattan Primary Care",
      "address": "55 W 17th St #105",
      "phone": "+1 212-378-9987",
      "url": "https://www.manhattanprimarycaredoctorsnyc.com/",
      "zip": "10011"
    },
    {
      "name": "Independent Doctors of New York (IDNY)",
      "phone": "+1 212-570-6100",
      "url": "http://idny.org/",
      "zip": "10075"
    },
    {
      "name": "Manhattan Family Practice",
      "address": "911 Park Ave",
      "phone": "+1 212-288-7193",
      "url": "http://www.manhattanfamilypractice.com/",
      "zip": "10075"
    },
    {
      "name": "Schleider Natan L MD",
      "address": "35 E 35th St #1h",
      "phone": "+1 646-957-5444",
      "url": "http://doctorinthefamily.com/",
      "zip": "10016"
    },
    {
      "name": "Medical Offices of Manhattan",
      "address": "211 E 51st St",
      "phone": "+1 212-398-1709",
      "url": "https://www.medicalofficesofmanhattan.com/?utm_source=gmb_mom&utm_medium=gmb",
      "zip": "10022"
    },
    {
      "name": "Dr. Michael Raffinan",
      "address": "111 Broadway Suite 504 · In Trinity and United States Realty Buildings",
      "phone": "+1 212-537-5039",
      "url": "http://www.raffmd.com/",
      "zip": "10006"
    },
    {
      "name": "New York Medicine Doctors, Pllc.",
      "address": "800 2nd Ave 9th floor",
      "phone": "+1 646-329-6585",
      "url": "http://www.mypainreliefny.net/",
      "zip": "10017"
    },
    {
      "name": "Medical Offices of Manhattan",
      "address": "201 E 65th St",
      "phone": "+1 212-879-4700",
      "url": "https://www.medicalofficesofmanhattan.com/?utm_source=gmb_ues&utm_medium=gmb",
      "zip": "10065"
    },
    {
      "name": "Affiliated Physicians",
      "address": "255 Greenwich St Suite 520",
      "phone": "+1 212-935-8725",
      "url": "https://www.affiliatedphysicians.com/",
      "zip": "10007"
    },
    {
      "name": "Marina Gafanovich, MD",
      "address": "1550 York Ave",
      "phone": "+1 212-249-6218",
      "url": "https://www.nyinternist.com/?utm_source=gmb_auth",
      "zip": "10028"
    },
    {
      "name": "Mahyar Eidgah, MD",
      "address": "111 3rd Ave",
      "phone": "+1 646-876-5678",
      "url": "http://www.doctoreidgah.com/?utm_source=gmb_auth",
      "zip": "10003"
    },
    {
      "name": "Dr. Adjoa B. Duker, MD",
      "address": "NY, United States",
      "zip": "10001"
    },
    {
      "name": "Tomback Julie MD- Family Medicine",
      "address": "21 E 22nd St",
      "phone": "+1 212-460-7800",
      "url": "http://www.acpny.com/",
      "zip": "10010"
    },
    {
      "name": "Mount Sinai Doctors - East 85th Street - Primary Care",
      "address": "234 E 85th St 2nd floor",
      "phone": "+1 212-241-6585",
      "url": "http://www.mountsinaifpa.org/about-us/locations/east-85th-street",
      "zip": "10028"
    },
    {
      "name": "Northwell Health Physician Partners at Chelsea North",
      "address": "121A W 20th St",
      "phone": "+1 212-505-6663",
      "url": "https://www.northwell.edu/doctors-offices/northwell-health-physician-partners-at-chelsea-north",
      "zip": "10011"
    }
  ]
}