{
  "data": [
    {
      "name": "Teachers' Retirement System of the City of New York",
      "address": "55 Water St · In 55 Water Street",
      "phone": "+1 888-869-2877",
      "url": "https://www.trsnyc.org/",
      "zip": "10041"
    },
    {
      "name": "United Federation of Teachers",
      "address": "52 Broadway",
      "phone": "+1 212-777-7500",
      "url": "http://www.uft.org/",
      "zip": "10004"
    },
    {
      "name": "Teachers Pay Teachers",
      "address": "111 E 18th St",
      "phone": "+1 646-588-0910",
      "url": "https://www.teacherspayteachers.com/",
      "zip": "10003"
    },
    {
      "name": "United Federation of Teachers",
      "url": "http://www.uft.org/",
      "zip": "10010"
    },
    {
      "name": "United Federation of Teachers",
      "address": "Brooklyn, NY, United States",
      "phone": "+1 718-852-4900",
      "url": "http://www.uft.org/",
      "zip": "11201"
    },
    {
      "name": "Teachers Unite",
      "address": "601 W 26th St room 325-55 · In Starrett-Lehigh",
      "phone": "+1 212-675-4790",
      "url": "http://www.teachersunite.org/",
      "zip": "10001"
    },
    {
      "name": "NYC Teaching Fellows",
      "url": "http://nycteachingfellows.org/",
      "zip": "11201"
    },
    {
      "name": "New York Teacher City Edition",
      "url": "http://www.uft.org/",
      "zip": "10004"
    },
    {
      "name": "Dial-A-Teacher",
      "phone": "+1 212-777-3380",
      "zip": "10004"
    },
    {
      "name": "Teachers College, Columbia University",
      "address": "525 W 120th St",
      "phone": "+1 212-678-3000",
      "url": "https://www.tc.columbia.edu/",
      "zip": "10027"
    },
    {
      "name": "STEM teachers NYC",
      "url": "https://stemteachersnyc.org/",
      "zip": "10025"
    },
    {
      "name": "Teachers Federal Credit Union",
      "address": "180 Riverside Blvd",
      "phone": "+1 631-698-7000",
      "url": "http://www.teachersfcu.org/",
      "zip": "10069"
    },
    {
      "name": "UFT Teacher Center",
      "address": "52 Broadway #18",
      "phone": "+1 212-475-3737",
      "url": "http://ufttc.org/",
      "zip": "10004"
    },
    {
      "name": "Teachers Preparatory High School",
      "address": "Brooklyn, NY, United States",
      "phone": "+1 718-498-2605",
      "url": "http://www.teachersprep.org/",
      "zip": "11212"
    },
    {
      "name": "New York State Association of Teacher Educators",
      "url": "http://nys-ate.org/",
      "zip": "10468"
    },
    {
      "name": "NYC Men Teach",
      "url": "https://nycmenteach.org/contact-us/",
      "zip": "11201"
    },
    {
      "name": "The Broadway Teaching Group",
      "url": "http://broadwaystudentsummit.com/",
      "zip": "11960"
    },
    {
      "name": "Barclay School Supplies - Parent and Teacher Superstore",
      "address": "Brooklyn, NY, United States",
      "phone": "+1 718-875-2424",
      "url": "http://www.barclayschoolsupplies.com/",
      "zip": "11201"
    }
  ]
}