{
  "data": [
    {
      "name": "North Austin Animal Hospital",
      "address": "5608 Burnet Rd",
      "phone": "+1 512-459-7676",
      "url": "http://www.northaustinanimalhospital.com/?&utm_source=google&utm_medium=organic&utm_campaign=gmb&utm_content=home",
      "zip": "78756"
    },
    {
      "name": "ATX Animal Clinic",
      "address": "8033 Mesa Dr",
      "phone": "+1 512-338-4300",
      "url": "https://atxanimalclinic.com/",
      "zip": "78731"
    },
    {
      "name": "Austin Urban Vet Center",
      "address": "710 W 5th St",
      "phone": "+1 512-476-2882",
      "url": "https://austinurbanvet.com/",
      "zip": "78701"
    },
    {
      "name": "Best Vet",
      "address": "8863 Anderson Mill Rd #105",
      "phone": "+1 512-336-9663",
      "url": "http://www.bestvetaustin.com/",
      "zip": "78729"
    },
    {
      "name": "Allandale Veterinary Clinic",
      "address": "6800 Burnet Rd #1",
      "phone": "+1 512-454-6719",
      "url": "http://www.allandalevetclinic.com/",
      "zip": "78757"
    },
    {
      "name": "Austin Vet Hospital",
      "address": "4701 N N Interstate 35 Frontage Rd",
      "phone": "+1 512-476-9191",
      "url": "http://austinvethospital.com/?y_source=1_MTI4NzExMDUtNzE1LWxvY2F0aW9uLndlYnNpdGU%3D",
      "zip": "78722"
    },
    {
      "name": "Burnet Road Animal Hospital",
      "address": "8511 Burnet Rd",
      "phone": "+1 512-452-7606",
      "url": "http://burnetroadanimalhospital.com/",
      "zip": "78757"
    },
    {
      "name": "South Park Animal Hospital",
      "address": "615 W Slaughter Ln #121",
      "phone": "+1 512-386-1065",
      "url": "http://www.southparkaustin.com/",
      "zip": "78748"
    },
    {
      "name": "Brykerwood Veterinary Clinic",
      "address": "1501 W 35th St",
      "phone": "+1 512-454-3833",
      "url": "http://brykerwoodvetclinic.com/",
      "zip": "78703"
    },
    {
      "name": "Animal Medical Center of Austin",
      "address": "1536 E Anderson Ln",
      "phone": "+1 512-832-4119",
      "url": "https://austinanimed.com/",
      "zip": "78752"
    },
    {
      "name": "Austin Vet Care at Metric",
      "address": "12419 Metric Blvd",
      "phone": "+1 512-832-1088",
      "url": "https://www.austinvetcaremetric.com/",
      "zip": "78758"
    },
    {
      "name": "Northwest Austin Veterinary Center",
      "address": "11846 Jollyville Rd",
      "phone": "+1 512-250-8048",
      "url": "http://austinvet.org/",
      "zip": "78759"
    },
    {
      "name": "Capital Veterinary Clinic",
      "address": "4800 S Congress Ave",
      "phone": "+1 512-442-1496",
      "url": "http://www.capitalvet.com/",
      "zip": "78745"
    },
    {
      "name": "North Lamar Veterinary Clinic",
      "address": "10828 N Lamar Blvd",
      "phone": "+1 512-836-2888",
      "url": "https://www.northlamarvetclinic.com/",
      "zip": "78753"
    },
    {
      "name": "South Austin Pet Clinic",
      "address": "1901 W William Cannon Dr #153 · In Towne Square",
      "phone": "+1 512-441-5900",
      "url": "http://southaustinpetclinic.com/",
      "zip": "78745"
    },
    {
      "name": "Austin Veterinary Diagnostic Hospital",
      "address": "9324 US-290",
      "phone": "+1 512-288-1040",
      "url": "https://austinvet.net/",
      "zip": "78736"
    },
    {
      "name": "2222 Veterinary Clinic",
      "address": "10601 Ranch to Market 2222 · In Shops at River Place",
      "phone": "+1 512-276-2633",
      "url": "http://www.2222veterinaryclinic.com/",
      "zip": "78730"
    },
    {
      "name": "Bluebonnet Riverside Veterinary Clinic",
      "address": "2400 E Oltorf St #10A",
      "phone": "+1 512-444-3111",
      "url": "http://bluebonnetah.com/",
      "zip": "78741"
    },
    {
      "name": "Century Animal Hospital",
      "address": "801 E William Cannon Dr #220 · In Century South",
      "phone": "+1 512-442-9518",
      "url": "https://www.centuryanimalhospital.com/?utm_source=GMB&utm_medium=organic&utm_campaign=austin",
      "zip": "78745"
    },
    {
      "name": "Travis Country Veterinary Hospital",
      "address": "5318 W US Hwy 290 Service Rd",
      "phone": "+1 512-892-1351",
      "url": "https://www.traviscountryvet.com/?utm_source=gmb&utm_medium=organic&y_source=1_MTE2Njg4NTAtNzE1LWxvY2F0aW9uLmdvb2dsZV93ZWJzaXRlX292ZXJyaWRl",
      "zip": "78735"
    }
  ]
}