{
  "data": [
    {
      "name": "Cook Children's Medical Center",
      "url": "https://cookchildrens.org/medical-center/?utm_source=google&utm_medium=OrganicSearch&utm_campaign=yext",
      "zip": "76104"
    },
    {
      "name": "Cook Children's Pediatrics Fort Worth - Southwest Harris Parkway",
      "phone": "+1 817-346-2525",
      "url": "https://locations.cookchildrens.org/tx/fort-worth/6401-harris-parkway?utm_source=google&utm_medium=OrganicSearch&utm_campaign=yext",
      "zip": "76132"
    },
    {
      "name": "Cook Children's Pediatrics Fort Worth - Henderson",
      "phone": "+1 817-335-3255",
      "url": "https://locations.cookchildrens.org/tx/fort-worth/1108-south-henderson-st.?utm_source=google&utm_medium=OrganicSearch&utm_campaign=yext",
      "zip": "76104"
    },
    {
      "name": "Cook Children's Urgent Care Fort Worth",
      "phone": "+1 682-885-8012",
      "url": "https://locations.cookchildrens.org/tx/fort-worth/1401-w.-pulaski-st?utm_source=google&utm_medium=OrganicSearch&utm_campaign=yext",
      "zip": "76104"
    },
    {
      "name": "Cook Children's Pediatrics Fort Worth - Forest Park",
      "phone": "+1 817-336-3800",
      "url": "https://locations.cookchildrens.org/tx/fort-worth/3200-riverfront-drive?utm_source=google&utm_medium=OrganicSearch&utm_campaign=yext",
      "zip": "76107"
    },
    {
      "name": "Cook Children's Pediatrics Fort Worth - Magnolia",
      "phone": "+1 817-336-4896",
      "url": "https://locations.cookchildrens.org/tx/fort-worth/1263-west-rosedale-st.?utm_source=google&utm_medium=OrganicSearch&utm_campaign=yext",
      "zip": "76104"
    },
    {
      "name": "Cook Children's Dodson Specialty Clinics",
      "phone": "+1 682-885-4000",
      "url": "https://locations.cookchildrens.org/tx/fort-worth/1500-cooper-st.-multspec-ftw-dodson?utm_source=google&utm_medium=OrganicSearch&utm_campaign=yext",
      "zip": "76104"
    },
    {
      "name": "Cook Children's",
      "url": "https://www.cookchildrens.org/",
      "zip": "76177"
    },
    {
      "name": "Cook Children's Pediatrics Fort Worth - Southwest",
      "phone": "+1 817-336-4040",
      "url": "https://cookchildrens.org/pediatrics/fort-worth/clearfork?utm_source=google&utm_medium=OrganicSearch&utm_campaign=yext",
      "zip": "76109"
    },
    {
      "name": "Young Chefs Academy - Fort Worth TX",
      "phone": "+1 817-989-2433",
      "url": "http://ftworthtx.youngchefsacademy.com/",
      "zip": "76116"
    },
    {
      "name": "Cook Children's Health Foundation",
      "url": "https://cookchildrens.org/giving/our-health-foundation/Pages/default.aspx",
      "zip": "76104"
    },
    {
      "name": "Cook Childrens Occupational Health",
      "url": "https://cookchildrens.org/alert/Employee-Resources/Pages/Occupational-Health.aspx",
      "zip": "76104"
    },
    {
      "name": "Cook Childrens Physician Network",
      "url": "https://www.cookchildrens.org/",
      "zip": "76102"
    },
    {
      "name": "Cook Children's - Teddy Bear Transport",
      "url": "https://cookchildrens.org/",
      "zip": "76106"
    },
    {
      "name": "Cook Children's Pediatrics Fort Worth - Cityview",
      "phone": "+1 817-370-0840",
      "url": "https://locations.cookchildrens.org/tx/fort-worth/6210-john-ryan-drive-pcp-ftw-cityview?utm_source=google&utm_medium=OrganicSearch&utm_campaign=yext",
      "zip": "76132"
    },
    {
      "name": "Cook Children's Neighborhood Clinic McCart",
      "phone": "+1 817-263-7500",
      "url": "https://locations.cookchildrens.org/tx/fort-worth/6421-mccart-ave.?utm_source=google&utm_medium=OrganicSearch&utm_campaign=yext",
      "zip": "76133"
    },
    {
      "name": "Cook Children's Home Health Fort Worth",
      "phone": "+1 682-885-6294",
      "url": "http://cookchildrenshomehealth.com/serviceareas/Pages/fort-worth.aspx?utm_source=google&utm_medium=OrganicSearch&utm_campaign=yext",
      "zip": "76104"
    },
    {
      "name": "Cook Children's Genetics",
      "phone": "+1 682-885-2170",
      "url": "https://locations.cookchildrens.org/tx/fort-worth/750-8th-ave.-genet-ftw-lancaster?utm_source=google&utm_medium=OrganicSearch&utm_campaign=yext",
      "zip": "76104"
    },
    {
      "name": "Cook Children's Enchanted Castle Gift Shop",
      "phone": "+1 682-885-6209",
      "url": "https://www.cookchildrens.org/medical-center/recreation-retail/Pages/enchanted-castle-gift-shop.aspx",
      "zip": "76104"
    },
    {
      "name": "Cook Children's Pediatric Surgery",
      "phone": "+1 682-885-7080",
      "url": "https://cookchildrens.org/pediatric-surgery?utm_source=google&utm_medium=OrganicSearch&utm_campaign=yext",
      "zip": "76104"
    }
  ]
}