{
  "data": [
    {
      "name": "Law Offices of Donald Mastrodomenico, P.C.",
      "address": "107-19 71st Ave",
      "phone": "+1 718-268-8111",
      "url": "https://www.mastrodomenicolaw.com/?utm_source=GMB&utm_medium=organic&utm_campaign=foresthills",
      "zip": "11375"
    },
    {
      "name": "Todd Greenberg, Esq.",
      "address": "118-21 Queens Blvd #306",
      "phone": "+1 718-268-0400",
      "url": "http://www.addabboandgreenberg.com/",
      "zip": "11375"
    },
    {
      "name": "Law Office of Robert Kaplan, P.C.",
      "address": "Forest Hills, NY, United States",
      "phone": "+1 718-268-4200",
      "zip": "11375"
    },
    {
      "name": "The Law Firm of Davidoff & Associates",
      "address": "108-18 Queens Blvd Suite 404",
      "phone": "+1 718-568-7610",
      "url": "https://www.lawfirmdavidoff.com/?utm_source=GMB&utm_medium=organic&utm_campaign=queens",
      "zip": "11375"
    },
    {
      "name": "Cohen & Cohen Law Group, P.C.",
      "address": "104-70 Queens Blvd #312",
      "phone": "+1 718-275-7779",
      "url": "https://www.cohenandcohenlawgroup.com/?npcmp=dir:local:4734197:11375",
      "zip": "11375"
    },
    {
      "name": "Stephen Bilkis & Associates",
      "address": "Forest Hills, NY, United States",
      "phone": "+1 718-767-1700",
      "url": "https://criminaldefense.1800nynylaw.com/",
      "zip": "11375"
    },
    {
      "name": "Morton Povman PC",
      "address": "Forest Hills, NY, United States",
      "phone": "+1 718-577-5711",
      "url": "http://lawyers-queens.com/",
      "zip": "11375"
    },
    {
      "name": "Law Office of Randy S. Alpert",
      "address": "Forest Hills, NY, United States · In Pickman Building",
      "phone": "+1 718-544-3963",
      "url": "http://www.randyalpertlaw.com/",
      "zip": "11375"
    },
    {
      "name": "Kand Real Estate Law Forest Hills",
      "address": "Forest Hills, NY, United States",
      "phone": "+1 718-542-3000",
      "url": "https://www.realestatelawqueens.com/forest-hills-ny/",
      "zip": "11375"
    },
    {
      "name": "Allan R Bloomfield Law Office",
      "address": "Forest Hills, NY, United States · In Pickman Building",
      "phone": "+1 718-544-0500",
      "url": "http://bankruptcyqueens.com/",
      "zip": "11375"
    },
    {
      "name": "Law Offices Of Roman Aminov",
      "address": "Forest Hills, NY, United States",
      "phone": "+1 347-694-8856",
      "url": "https://www.aminovlaw.com/forest-hills-ny-estate-lawyer/",
      "zip": "11375"
    },
    {
      "name": "Mark E. Cohen, Esq.",
      "address": "Forest Hills, NY, United States",
      "phone": "+1 718-258-1500",
      "url": "https://www.nyconsumerbankruptcy.com/?utm_source=googlemybusiness&utm_medium=organic&utm_campaign=gmb&utm_term=forest%20hills&utm_content=website",
      "zip": "11375"
    },
    {
      "name": "Goldstein & Greenlaw",
      "address": "Flushing, NY, United States",
      "phone": "+1 718-544-7701",
      "zip": "11375"
    },
    {
      "name": "David Alishaev Esq Queens Real Estate/ Bankruptcy Attorney",
      "address": "Forest Hills, NY, United States",
      "phone": "+1 718-459-2030",
      "url": "http://www.wecloseny.com/",
      "zip": "11375"
    },
    {
      "name": "Tarshis & Hammerman, LLP",
      "address": "Forest Hills, NY, United States · In Plaza College",
      "phone": "+1 877-730-2955",
      "url": "http://www.tarshisandhammermanlaw.com/",
      "zip": "11375"
    },
    {
      "name": "Povman Law Firm",
      "address": "Forest Hills, NY, United States",
      "phone": "+1 718-577-5711",
      "url": "http://lawyers-queens.com/",
      "zip": "11375"
    },
    {
      "name": "Adam L. Shapiro & Associates, P.C.",
      "address": "70-20 Austin St #111",
      "phone": "+1 718-261-8500",
      "url": "http://www.shapirolawoffice.com/",
      "zip": "11375"
    },
    {
      "name": "Usten Law P.C.",
      "address": "Forest Hills, NY, United States",
      "phone": "+1 718-674-6905",
      "url": "http://www.ustenlaw.com/",
      "zip": "11375"
    },
    {
      "name": "David E. Duhan Attorney at Law",
      "address": "Forest Hills, NY, United States",
      "phone": "+1 718-575-5550",
      "url": "http://duhanlaw.com/",
      "zip": "11375"
    }
  ]
}