{
  "data": [
    {
      "name": "Richard H Lovell PC Law Office",
      "address": "Ozone Park, NY, United States",
      "phone": "+1 718-835-9300",
      "url": "http://www.lovelllawnewyork.com/",
      "zip": "11417"
    },
    {
      "name": "The Cassisi Law Firm",
      "address": "10208 101st Ave",
      "phone": "+1 718-524-3398",
      "url": "https://www.cassisilawfirm.com/?utm_source=GMB&utm_medium=organic&utm_campaign=ozonepark",
      "zip": "11416"
    },
    {
      "name": "Sullivan & Galleshaw, LLP",
      "address": "Ozone Park, NY, United States",
      "phone": "+1 718-865-3585",
      "url": "https://www.sullivangalleshaw.com/?utm_source=queens-gmb&utm_medium=gmb&utm_campaign=local",
      "zip": "11417"
    },
    {
      "name": "Fertig & Fertig",
      "address": "Jamaica, NY, United States",
      "phone": "+1 718-835-1100",
      "zip": "11417"
    },
    {
      "name": "Law Office Of Daniel Kogan",
      "address": "Jamaica, NY, United States",
      "phone": "+1 718-845-2881",
      "zip": "11416"
    },
    {
      "name": "John J Napolitano",
      "address": "Ozone Park, NY, United States",
      "phone": "+1 718-845-3070",
      "zip": "11416"
    },
    {
      "name": "Conza & McNamara, Lawyers",
      "address": "Ozone Park, NY, United States",
      "phone": "+1 718-845-5555",
      "url": "https://conzamcnamara.com/",
      "zip": "11416"
    },
    {
      "name": "The Law Office of Edward R. McNamara",
      "address": "Ozone Park, NY, United States",
      "phone": "+1 212-300-5027",
      "zip": "11416"
    },
    {
      "name": "Brina Ciaramella, Esq. Real Estate Broker & Attorney",
      "address": "108-14 Cross Bay Blvd",
      "phone": "+1 917-257-1584",
      "url": "http://brinaesq.com/",
      "zip": "11417"
    },
    {
      "name": "Baldeo Albert J",
      "address": "Ozone Park, NY, United States",
      "phone": "+1 718-529-2300",
      "zip": "11417"
    },
    {
      "name": "Conza Peter J",
      "address": "Ozone Park, NY, United States",
      "phone": "+1 718-845-5555",
      "zip": "11416"
    },
    {
      "name": "Ragano & Ragano",
      "address": "Ozone Park, NY, United States",
      "phone": "+1 718-843-7584",
      "zip": "11416"
    },
    {
      "name": "Peter C. Lomtevas ESQ., P.C.",
      "address": "Ozone Park, NY, United States",
      "phone": "+1 718-849-5314",
      "url": "http://www.lomtevas.com/",
      "zip": "11416"
    },
    {
      "name": "Robert Levy, Esq.",
      "phone": "+1 718-738-3600",
      "url": "http://robertlevyesq.godaddysites.com/",
      "zip": "11417"
    },
    {
      "name": "Daniel Tanon, Esq.",
      "url": "http://danieltanonesq.com/",
      "zip": "11416"
    }
  ]
}