{
  "data": [
    {
      "name": "Law Office of Antoinette Osbourne",
      "address": "",
      "phone": "+1 718-502-9137",
      "url": "http://www.osbournelaw.com/",
      "zip": "11435"
    },
    {
      "name": "Queens Volunteer Lawyers Project, Inc.",
      "address": "",
      "phone": "+1 718-739-4100",
      "url": "http://qcba.org/pro-bono/",
      "zip": "11435"
    },
    {
      "name": "Joseph A Ledwidge P.C. Attorney at Law - LedLawyers.com",
      "address": "170-26 Cedarcroft Rd",
      "phone": "+1 347-395-4799",
      "url": "https://ledlawyers.com/",
      "zip": "11432"
    },
    {
      "name": "Law Office of Mark J. Keller",
      "address": "",
      "phone": "+1 718-297-1890",
      "url": "http://markkellerlaw.com/",
      "zip": "11435"
    },
    {
      "name": "The Law Office Of David Schnall",
      "phone": "+1 646-656-0151",
      "url": "http://www.schnallfamilylaw.com/"
    },
    {
      "name": "Salami Oyakhilome Law Offices",
      "address": "",
      "phone": "+1 718-298-6029",
      "url": "http://www.salamioyakhlaw.com/",
      "zip": "11435"
    },
    {
      "name": "Okwara & Associates P.C.",
      "address": "",
      "phone": "+1 718-558-5656",
      "url": "https://okwarapc.com/",
      "zip": "11435"
    },
    {
      "name": "K L Sanchez Car Accident Lawyers - Queens",
      "phone": "+1 929-480-5770",
      "url": "https://accidentlawyer-queens.com/"
    },
    {
      "name": "Gordon Law, P.C. - Queens Family and Divorce Lawyer",
      "address": "161-10 Jamaica Ave #205",
      "phone": "+1 347-670-2007",
      "url": "https://www.nylawyersteam.com/family-law-attorney/locations/queens",
      "zip": "11432"
    },
    {
      "name": "Gehi & Associates",
      "address": "173-29 Jamaica Ave",
      "phone": "+1 718-764-6911",
      "url": "https://gehilaw.com/immigration-lawyer-jamaica-nyc/",
      "zip": "11432"
    },
    {
      "name": "Albert Ghunney Attorney at Law",
      "url": "http://ghunneylaw.com/",
      "zip": "11432"
    },
    {
      "name": "Law Office of Affar Baksh",
      "address": "",
      "phone": "+1 718-848-8515",
      "url": "https://www.bakshlaw.com/",
      "zip": "11435"
    },
    {
      "name": "Real Estate Lawyer Queens R.A Esq.",
      "address": "",
      "phone": "+1 718-206-1555",
      "url": "https://realestatelawyernys.com/",
      "zip": "11418"
    },
    {
      "name": "Alex Duroseau Jr Law Office",
      "address": "",
      "phone": "+1 718-291-6390",
      "zip": "11435"
    },
    {
      "name": "Tanya Hobson-Williams P.C.",
      "address": "",
      "phone": "+1 718-210-4744",
      "url": "http://www.thobsonwilliamslaw.com/",
      "zip": "11432"
    },
    {
      "name": "Salfarlie, Salfarlie & Associates, P.C.",
      "address": "",
      "phone": "+1 718-291-7433",
      "url": "http://salfarlielaw.com/",
      "zip": "11435"
    },
    {
      "name": "Vernon & Associates P.C.",
      "address": "",
      "phone": "+1 212-603-9333",
      "url": "https://www.planmyestate.nyc/",
      "zip": "11432"
    },
    {
      "name": "Jack L. Glasser, P.C.",
      "address": "",
      "phone": "+1 718-526-8100",
      "zip": "11435"
    },
    {
      "name": "ZA Wani Law",
      "address": "",
      "phone": "+1 718-206-2020",
      "url": "http://zawanilaw.com/",
      "zip": "11432"
    }
  ]
}