{
  "data": [
    {
      "name": "Actuarial Advantage, Inc.",
      "url": "http://www.taa-inc.com/",
      "zip": "19063"
    },
    {
      "name": "Savitz - now part of CBIZ Inc.",
      "address": "1845 Walnut St # 14",
      "phone": "+1 215-587-0700",
      "url": "https://www.cbiz.com/retirement",
      "zip": "19103"
    },
    {
      "name": "Sheraton Philadelphia Downtown",
      "address": "201 N 17th St",
      "phone": "+1 215-448-2000",
      "url": "https://www.marriott.com/hotels/travel/phlws-sheraton-philadelphia-downtown/?scid=bb1a189a-fec3-4d19-a255-54ba596febe2&y_source=1_MTUwMjY3OS03MTUtbG9jYXRpb24uZ29vZ2xlX3dlYnNpdGVfb3ZlcnJpZGU%3D",
      "zip": "19103"
    },
    {
      "name": "Temple University",
      "address": "1801 N Broad St · In Founder's Garden",
      "phone": "+1 215-204-7000",
      "url": "http://www.temple.edu/",
      "zip": "19122"
    },
    {
      "name": "University of Pennsylvania",
      "phone": "+1 215-898-5000",
      "url": "http://www.upenn.edu/",
      "zip": "19104"
    },
    {
      "name": "Actuarial Management Strategies",
      "url": "http://www.actmgmt.com/",
      "zip": "18938"
    },
    {
      "name": "Milliman & Robertson Inc.",
      "url": "http://us.milliman.com/",
      "zip": "19087"
    },
    {
      "name": "Milliman",
      "address": "Chesterbrook, PA, United States · In Chesterbrook Corporate Center",
      "phone": "+1 610-687-5644",
      "url": "http://us.milliman.com/",
      "zip": "19087"
    }
  ]
}