{
  "data": [
    {
      "name": "Phila Federation of Teachers",
      "address": "1816 Chestnut St",
      "phone": "+1 215-587-6738",
      "url": "http://www.pft.org/",
      "zip": "19103"
    },
    {
      "name": "Association-Catholic Teachers",
      "address": "1700 Sansom St # 903",
      "phone": "+1 215-568-4175",
      "url": "https://www.act1776.com/",
      "zip": "19103"
    },
    {
      "name": "PATA",
      "url": "http://philadelphiaartteachersalliance.com/",
      "zip": "19103"
    },
    {
      "name": "Philly Music Lessons",
      "address": "2111 E Susquehanna Ave",
      "phone": "+1 215-645-0405",
      "url": "http://phillymusiclessons.com/",
      "zip": "19125"
    },
    {
      "name": "Teach For America",
      "url": "http://www.teachforamerica.org/",
      "zip": "19106"
    },
    {
      "name": "The School District of Philadelphia",
      "address": "440 N Broad St",
      "phone": "+1 215-400-4000",
      "url": "https://www.philasd.org/",
      "zip": "19130"
    },
    {
      "name": "Philadelphia Piano Institute",
      "address": "621 S 2nd St",
      "phone": "+1 267-428-2492",
      "url": "https://philadelphiapianoinstitute.com/?utm_source=GMBlisting&utm_medium=organic",
      "zip": "19147"
    },
    {
      "name": "National Network of State Teachers of the Year (NNSTOY)",
      "url": "http://www.nnstoy.org/",
      "zip": "19147"
    },
    {
      "name": "Philly Music Lessons",
      "address": "1548 S 13th St",
      "phone": "+1 215-645-0405",
      "url": "http://phillymusiclessons.com/",
      "zip": "19147"
    },
    {
      "name": "Eck",
      "address": "728 S Chadwick St",
      "phone": "+1 215-821-8325",
      "url": "http://eck.com/",
      "zip": "19146"
    },
    {
      "name": "Albert M Greenfield Elementary School",
      "address": "2200 Chestnut St",
      "phone": "+1 215-400-7810",
      "url": "http://www.albertmgreenfieldschool.org/",
      "zip": "19103"
    },
    {
      "name": "Teach For America",
      "address": "100 W Oxford St E-3000",
      "phone": "+1 215-592-9260",
      "url": "http://www.teachforamerica.org/where-we-work/greater-philadelphia",
      "zip": "19122"
    },
    {
      "name": "Mayfair Elementary School",
      "address": "3001 Princeton Ave",
      "phone": "+1 215-335-5651",
      "url": "https://mayfair.philasd.org/",
      "zip": "19149"
    },
    {
      "name": "David Hughes, DM: piano teacher",
      "url": "http://davidhughespianist.com/",
      "zip": "19148"
    }
  ]
}