{
  "data": [
    {
      "name": "The 215 Guys",
      "address": "151 N 3rd St 4th floor",
      "phone": "+1 215-315-5529",
      "url": "https://www.the215guys.com/",
      "zip": "19106"
    },
    {
      "name": "Philadelphia Web Design Company",
      "address": "1735 Market St Suite 259",
      "phone": "+1 610-259-4123",
      "url": "http://philadelphia-web-design.com/",
      "zip": "19103"
    },
    {
      "name": "PA Web Design",
      "url": "http://pa-web-design.net/"
    },
    {
      "name": "YIKES, Inc.",
      "address": "204 E Girard Ave",
      "phone": "+1 215-238-8801",
      "url": "https://www.yikesinc.com/",
      "zip": "19125"
    },
    {
      "name": "The Website Design Agency - Philadelphia",
      "phone": "+1 855-603-0966",
      "url": "https://thewebsitedesignagency.com/philadelphia-pa/",
      "zip": "19130"
    },
    {
      "name": "John Walsh - Philadelphia Web Design",
      "address": "1410 W Porter St",
      "phone": "+1 215-237-7259",
      "url": "http://johnwalsh.design/",
      "zip": "19145"
    },
    {
      "name": "Ryan Hinkel Web Design",
      "url": "http://ryanhinkel.com/",
      "zip": "19107"
    },
    {
      "name": "Wyndetryst Print & Web Design",
      "phone": "+1 267-564-5221",
      "url": "http://www.wyndetryst.com/",
      "zip": "19129"
    },
    {
      "name": "MM Professional Web Design",
      "address": "2855 Winton St apt a",
      "phone": "+1 267-742-4707",
      "zip": "19145"
    },
    {
      "name": "Sci-Fi Web Design",
      "url": "https://sci-fi-web-design.ueniweb.com/?utm_campaign=gmb",
      "zip": "19143"
    },
    {
      "name": "GAGA Web Design",
      "url": "http://www.gagawebdesign.com/"
    },
    {
      "name": "Tyler Web Design",
      "url": "http://tylerwebdesign.info/hire-us/",
      "zip": "19106"
    },
    {
      "name": "Roja Interactive",
      "address": "1608 Walnut St 12th fl",
      "phone": "+1 877-854-3352",
      "url": "http://www.rojaweb.com/",
      "zip": "19103"
    },
    {
      "name": "Blinebury Design",
      "address": "2027 E Sergeant St",
      "phone": "+1 215-919-6056",
      "url": "https://blineburydesign.com/",
      "zip": "19125"
    },
    {
      "name": "Fab Web Philly",
      "address": "20 N 3rd St #401",
      "phone": "+1 215-987-6947",
      "url": "http://www.fabwebphilly.com/",
      "zip": "19106"
    },
    {
      "name": "Philadelphia Creative",
      "address": "One Penn Center, 1617 John F Kennedy Blvd #1710a · In Suburban Station",
      "phone": "+1 215-987-1677",
      "url": "https://www.philadelphiacreative.com/",
      "zip": "19103"
    },
    {
      "name": "Griflan Design",
      "phone": "+1 856-816-6159",
      "url": "http://www.griflan.com/",
      "zip": "19104"
    },
    {
      "name": "eNet Web Services Design & SEO",
      "phone": "+1 610-738-0800",
      "url": "https://www.enetwebservices.com/philadelphia-pa-website-design-seo/"
    },
    {
      "name": "Total Web Company",
      "address": "1013 Johnston St",
      "phone": "+1 215-284-7918",
      "url": "https://www.totalwebcompany.com/",
      "zip": "19148"
    },
    {
      "name": "KFL Webdesign",
      "address": "325 Chestnut St Unit 800 · In Constitution Place",
      "phone": "+1 267-800-0374",
      "url": "https://kflwebdesign.com/",
      "zip": "19106"
    }
  ]
}