{
  "data": [
    {
      "name": "Pediatric Associates at Argyle PA",
      "address": "8351 Westport Rd · In Chimney Office Center",
      "phone": "+1 904-317-8811",
      "url": "http://www.pedsargyle.com/",
      "zip": "32244"
    },
    {
      "name": "Jacksonville Kids Pediatrics",
      "address": "7807 Baymeadows Rd E · In Hampton Professional Park",
      "phone": "+1 904-446-9991",
      "url": "http://www.jkpeds.com/",
      "zip": "32256"
    },
    {
      "name": "Carithers Pediatric Group",
      "address": "2121 Park St",
      "phone": "+1 904-387-6200",
      "url": "http://carithersgroup.com/contact-us/park-street-location/",
      "zip": "32204"
    },
    {
      "name": "Jacksonville Pediatrics",
      "address": "2606 Park St",
      "phone": "+1 904-388-4646",
      "url": "http://jaxpeds.com/",
      "zip": "32204"
    },
    {
      "name": "North Florida Pediatrics San Marco",
      "address": "4051 Atlantic Blvd",
      "phone": "+1 904-393-4700",
      "url": "http://nflpediatrics.com/",
      "zip": "32207"
    },
    {
      "name": "Sahar Aboudan Pediatrics",
      "address": "9905 Old St Augustine Rd # 103 · In Amira Office Park",
      "phone": "+1 904-260-3609",
      "url": "http://www.saharaboudanpediatrics.com/",
      "zip": "32257"
    },
    {
      "name": "Northeast Florida Pediatric",
      "address": "13595 Atlantic Blvd",
      "phone": "+1 904-221-4325",
      "zip": "32225"
    },
    {
      "name": "North Florida Pediatrics Baymeadows",
      "address": "9770 Old Baymeadows Rd Suite 127",
      "phone": "+1 904-518-5586",
      "url": "http://www.nflpediatrics.com/",
      "zip": "32256"
    },
    {
      "name": "Orange Park Pediatrics—Argyle Forest",
      "address": "6353 Argyle Forest Blvd #4",
      "phone": "+1 904-908-0200",
      "url": "https://orangeparkpediatrics.com/",
      "zip": "32244"
    },
    {
      "name": "Mandarin Pediatrics",
      "address": "14810 Old St Augustine Rd #106",
      "phone": "+1 904-268-7701",
      "url": "https://mandarinpediatrics.com/",
      "zip": "32258"
    },
    {
      "name": "Advanced Pediatric Care",
      "address": "943 Cesery Blvd building G",
      "phone": "+1 904-861-1330",
      "url": "http://www.advancedpedcare.com/",
      "zip": "32211"
    },
    {
      "name": "Rainbow Pediatric Center",
      "address": "4788 Hodges Blvd",
      "phone": "+1 904-223-9100",
      "url": "http://www.rainbowpediatriccenter.com/",
      "zip": "32224"
    },
    {
      "name": "First Coast Pediatrics",
      "address": "13453 N Main St #503 · In Duval Station Office Park",
      "phone": "+1 904-207-6530",
      "zip": "32218"
    },
    {
      "name": "Beaches Pediatrics",
      "address": "13820 Old St Augustine Rd #101",
      "phone": "+1 904-246-8684",
      "url": "https://www.beachespediatrics.com/",
      "zip": "32258"
    },
    {
      "name": "Carithers Pediatric Group - Southside location",
      "address": "7741 Point Meadows Dr Suite 207 · In The Shoppes Of Gate Parkway",
      "phone": "+1 904-997-0023",
      "url": "http://carithersgroup.com/contact-us/centurion-street-n-location/",
      "zip": "32256"
    },
    {
      "name": "Angel Kids Pediatrics",
      "address": "13443 Atlantic Blvd",
      "phone": "+1 904-224-5437",
      "url": "http://www.myangelkids.com/",
      "zip": "32225"
    },
    {
      "name": "Rebecca Cooper, MD - Beaches Pediatrics | Jacksonville Beach Pediatrician",
      "address": "Jacksonville Beach, FL, United States",
      "phone": "+1 904-246-8684",
      "url": "http://www.beachespediatrics.com/",
      "zip": "32250"
    },
    {
      "name": "Mosolf Pediatrics",
      "address": "14197 Spartina Ct",
      "phone": "+1 904-249-3858",
      "url": "http://www.mosolfpediatrics.com/",
      "zip": "32224"
    },
    {
      "name": "Normandy Pediatrics",
      "address": "10250 Normandy Blvd",
      "phone": "+1 904-652-0870",
      "url": "https://www.morapeds.com/middleburg-pediatrics.html",
      "zip": "32221"
    },
    {
      "name": "Pediatric Associates of Jacksonville",
      "address": "4745 Sutton Park Ct #801",
      "phone": "+1 904-273-6533",
      "url": "https://www.pajax.com/",
      "zip": "32224"
    }
  ]
}