{
  "data": [
    {
      "name": "The Law Office of Usman B. Ahmad, P.C.",
      "address": "Long Island City, NY, United States",
      "phone": "+1 718-482-7777",
      "url": "http://www.usmanbahmad.com/",
      "zip": "11101"
    },
    {
      "name": "Law Office of William L. Teitler",
      "address": "30-30 Northern Blvd Suite 401",
      "phone": "+1 718-392-3483",
      "url": "http://lawyerqueens.com/",
      "zip": "11101"
    },
    {
      "name": "Court Square Law Project",
      "address": "Long Island City, NY, United States",
      "phone": "+1 718-340-4412",
      "url": "http://www.courtsquarelaw.org/",
      "zip": "11101"
    },
    {
      "name": "Ricotta & Marks, P.C.",
      "address": "31-10 37th Ave #401",
      "phone": "+1 347-464-8694",
      "url": "https://www.queensemploymentattorney.com/",
      "zip": "11101"
    },
    {
      "name": "Limberis Law Firm",
      "address": "Long Island City, NY, United States",
      "phone": "+1 844-822-1582",
      "url": "http://www.limberislaw.com/",
      "zip": "11101"
    },
    {
      "name": "Stephen D. Hans & Associates, P.C.",
      "address": "30-30 Northern Blvd Suite 401",
      "phone": "+1 718-275-6700",
      "url": "http://www.hansassociates.com/",
      "zip": "11101"
    },
    {
      "name": "The Law Offices of Scott Caplan, PC",
      "url": "https://scottcaplanlaw.com/contact/",
      "zip": "11101"
    },
    {
      "name": "Theodore M Davis Law Office",
      "address": "Long Island City, NY, United States",
      "phone": "+1 718-361-6789",
      "zip": "11101"
    },
    {
      "name": "Pagan Lopez Law Office",
      "address": "Long Island City, NY, United States",
      "phone": "+1 347-434-3040",
      "url": "http://www.paganlopezlaw.com/",
      "zip": "11101"
    },
    {
      "name": "Gordon Legal, P.C.",
      "phone": "+1 718-989-5751",
      "zip": "11101"
    },
    {
      "name": "Abogado LG",
      "address": "Long Island City, NY, United States",
      "url": "http://acebook.com/abogadoNY",
      "zip": "11101"
    },
    {
      "name": "Rosado Chechanover Bayrasli",
      "address": "Long Island City, NY, United States",
      "phone": "+1 631-858-0572",
      "zip": "11101"
    }
  ]
}