{
  "data": [
    {
      "name": "Pediatric Associates of Dallas",
      "address": "7859 Walnut Hill Ln #200",
      "phone": "+1 214-369-7661",
      "url": "https://paddallas.com/",
      "zip": "75230"
    },
    {
      "name": "Pediatricians of Dallas",
      "address": "8325 Walnut Hill Ln #225 · In Woodhill Medical Park",
      "phone": "+1 214-691-3535",
      "url": "http://www.pediatriciansofdallas.com/",
      "zip": "75231"
    },
    {
      "name": "Pediatrician in Dallas TX",
      "url": "http://www.pediatriciandallastx.com/contactus/",
      "zip": "75208"
    },
    {
      "name": "North Texas Pediatrics",
      "address": "12200 Park Central Dr Suite 255",
      "phone": "+1 214-553-0705",
      "url": "http://www.northtexaspedi.com/",
      "zip": "75251"
    },
    {
      "name": "Park Cities Pediatrics",
      "address": "8215 Westchester Dr #150",
      "phone": "+1 214-361-7185",
      "url": "https://www.parkcitiespediatrics.com/",
      "zip": "75225"
    },
    {
      "name": "MD Kids Pediatrics",
      "address": "2750 W Northwest Hwy Ste. #170",
      "phone": "+1 214-654-0007",
      "url": "http://mdmedicalgroup.us/",
      "zip": "75220"
    },
    {
      "name": "Inwood Village Pediatrics",
      "address": "5470 W Lovers Ln #330 · In Inwood Village",
      "phone": "+1 214-956-7337",
      "url": "http://www.inwoodvillagepediatrics.com/",
      "zip": "75209"
    },
    {
      "name": "Forest Lane Pediatrics LLP",
      "address": "& 308, 7777 Forest Ln Building B Suite 300 · In Medical City Children's Hospital",
      "phone": "+1 972-284-7770",
      "url": "http://www.forestlanepediatrics.com/",
      "zip": "75230"
    },
    {
      "name": "Comprehensive Pediatric Care",
      "address": "1151 N Buckner Blvd Suite 203",
      "phone": "+1 972-600-2614",
      "url": "https://www.dallaspeds.com/?utm_source=gmb_auth",
      "zip": "75218"
    },
    {
      "name": "Kessler Pediatrics",
      "address": "1411 N Beckley Ave #164 · In the Methodist Dallas Medical Center",
      "phone": "+1 214-941-6691",
      "url": "http://www.kesslerpediatrics.com/",
      "zip": "75208"
    },
    {
      "name": "Dr. Donza J. Rogers, MD",
      "address": "1411 N Beckley Ave",
      "phone": "+1 214-941-6691",
      "url": "http://www.kesslerpediatrics.com/",
      "zip": "75203"
    },
    {
      "name": "Forest Lane Pediatrics: Dr. Christopher Straughn MD",
      "address": "7777 Forest Ln Building B, Suite 300",
      "phone": "+1 972-284-7770",
      "url": "http://www.forestlanepediatrics.com/",
      "zip": "75230"
    },
    {
      "name": "Dallas Southwest Pediatrics",
      "address": "3920 W Wheatland Rd #128",
      "phone": "+1 972-298-1878",
      "zip": "75237"
    },
    {
      "name": "MD Kids Pediatrics",
      "address": "4351 Dallas Fort Worth Turnpike #150 · In PINNACLE POINTE",
      "phone": "+1 469-488-4300",
      "url": "http://mdmedicalgroup.us/",
      "zip": "75211"
    },
    {
      "name": "Preston Centre Pediatrics",
      "address": "8222 Douglas Ave #500",
      "phone": "+1 214-987-0777",
      "url": "http://prestoncentrepediatrics.com/",
      "zip": "75225"
    },
    {
      "name": "MD Kids Pediatrics",
      "address": "3434 W Illinois Ave #306-3 · In Sierra Vista Plaza",
      "phone": "+1 214-623-1900",
      "url": "http://mdmedicalgroup.us/",
      "zip": "75211"
    },
    {
      "name": "Dr. Karen B. McClard, MD",
      "address": "7859 Walnut Hill Cir #200",
      "phone": "+1 214-369-7661",
      "url": "http://www.paddallas.com/",
      "zip": "75230"
    },
    {
      "name": "MD Kids Pediatrics",
      "address": "655 W Illinois Ave #916 · In Wynnewood Village",
      "phone": "+1 214-941-7611",
      "url": "http://www.mdkidspediatrics.com/",
      "zip": "75224"
    },
    {
      "name": "MD Kids Pediatrics",
      "address": "8330 Abrams Rd Ste. #112 · In Town Creek Shopping Center",
      "phone": "+1 214-342-4400",
      "url": "http://mdmedicalgroup.us/",
      "zip": "75243"
    },
    {
      "name": "PGV Pediatrics, P.A.",
      "address": "3417 Gaston Ave #845",
      "phone": "+1 214-823-2552",
      "url": "http://pgvpediatrics.com/",
      "zip": "75246"
    }
  ]
}