{
  "data": [
    {
      "name": "Law Office of Thomas Lai",
      "address": "In Yeeho Tower",
      "phone": "+1 718-888-1033",
      "url": "http://www.thomaslailaw.com/",
      "zip": "11354"
    },
    {
      "name": "Law Office of Yeung & Wang PLLC",
      "address": "In Flushing Commons",
      "phone": "+1 718-888-0090",
      "url": "http://www.ywlawoffice.com/",
      "zip": "11354"
    },
    {
      "name": "Law Office Kevin Kerveng Tung",
      "address": "In Queens Crossing",
      "phone": "+1 718-939-2911",
      "url": "http://www.kktlawfirm.com/",
      "zip": "11354"
    },
    {
      "name": "Amy Y Chen Law Office, PLLC",
      "phone": "+1 718-321-8056",
      "url": "http://www.amychenlaw.com/",
      "zip": "11355"
    },
    {
      "name": "The Law Office of Chen & Associates, PC",
      "address": "",
      "phone": "+1 718-886-1858",
      "url": "https://chenassociatesatlaw.com/",
      "zip": "11354"
    },
    {
      "name": "Law Office of David A. Bredin & Associates, P.C.",
      "address": "",
      "phone": "+1 718-285-0498",
      "url": "http://www.bredinlaw.com/",
      "zip": "11354"
    },
    {
      "name": "The Popick Law Firm PC",
      "address": "136-31 41st Ave Suite 8B",
      "phone": "+1 718-321-7460",
      "url": "http://bpinjurylawyer.com/",
      "zip": "11355"
    },
    {
      "name": "艾飞力律师事务所-Alexandre Law Firm",
      "address": "13620 38th Ave #11B · In Queens Crossing",
      "phone": "+1 718-305-1660",
      "url": "http://www.alexandrelaw.com/en/%E9%A6%96%E9%A1%B5/",
      "zip": "11354"
    },
    {
      "name": "Yang & Associates, P.C.",
      "address": "",
      "phone": "+1 718-445-7208",
      "url": "http://yanglawpc.com/",
      "zip": "11354"
    },
    {
      "name": "Lan & Associates, P.C.",
      "address": "",
      "phone": "+1 718-461-9434",
      "url": "http://lanandassociates.com/",
      "zip": "11354"
    },
    {
      "name": "Tai Law Firm, PLLC",
      "address": "In.IMAGE",
      "phone": "+1 718-886-3110",
      "url": "http://www.tailaw.com/",
      "zip": "11354"
    },
    {
      "name": "Lau & Associates",
      "address": "",
      "phone": "+1 516-829-9770",
      "zip": "11355"
    },
    {
      "name": "张德海律师事务所 The Law Office of Dehai Zhang",
      "address": "13620 38th Ave Suite 9G · In Queens Crossing",
      "phone": "+1 718-463-1111",
      "url": "http://www.dehailaw.com/",
      "zip": "11354"
    },
    {
      "name": "Demidchik Law Firm: Anna Demidchik",
      "address": "",
      "phone": "+1 718-255-9898",
      "url": "http://demidchiklawfirm.com/zh/",
      "zip": "11354"
    },
    {
      "name": "Law Offices of Liping Shi, P.C.",
      "address": "36-09 Main St #9b",
      "phone": "+1 718-353-8890",
      "url": "https://shilawoffices.com/",
      "zip": "11354"
    },
    {
      "name": "The Kasen Law Firm/凯森律师楼",
      "address": "136-33 37th Avenue #9B · In Queens Crossing",
      "phone": "+1 718-337-8012",
      "url": "http://kasenlawfirm.com/",
      "zip": "11354"
    },
    {
      "name": "Kim Juston K",
      "phone": "+1 718-777-8800",
      "url": "http://www.justonkimlaw.com/",
      "zip": "11354"
    },
    {
      "name": "Liu Ying",
      "address": "",
      "phone": "+1 718-463-1868",
      "url": "http://liushieldslaw.com/",
      "zip": "11355"
    }
  ]
}