{
  "data": [
    {
      "name": "Dentistry In Bellevue: Brent Spencer DDS, Kooroush Mansourzadeh DDS",
      "address": "Bellevue, WA, United States",
      "phone": "+1 425-455-1076",
      "url": "http://www.dentistryinbellevue.com/",
      "zip": "98004"
    },
    {
      "name": "Sunrise Dental Bonney Lake",
      "address": "Bonney Lake, WA, United States",
      "phone": "+1 253-220-4105",
      "url": "http://www.sunrisedental.com/",
      "zip": "98391"
    },
    {
      "name": "Reign Dental",
      "address": "Milton, WA, United States",
      "phone": "+1 253-927-5501",
      "url": "https://www.reigndental.com/",
      "zip": "98354"
    },
    {
      "name": "Washington Academy of General Dentistry",
      "address": "SeaTac, WA, United States",
      "phone": "+1 206-212-4969",
      "url": "http://www.washingtonagd.org/",
      "zip": "98188"
    },
    {
      "name": "Dentist in Wenatchee, WA, 98801",
      "address": "Wenatchee, WA, United States 路 In Emerson Park North",
      "phone": "+1 509-886-0500",
      "url": "https://sunrisedentalwenatchee.com/contact-us/",
      "zip": "98801"
    },
    {
      "name": "Sunrise Dental | Dentist in Kent",
      "address": "Kent, WA, United States 路 In East hill Village",
      "phone": "+1 253-856-3384",
      "url": "https://dentistofkent.com/",
      "zip": "98030"
    },
    {
      "name": "WA Dental - Dentist in Federal Way, WA",
      "address": "Federal Way, WA, United States",
      "phone": "+1 253-444-3010",
      "url": "http://www.wadentaloffice.com/",
      "zip": "98003"
    },
    {
      "name": "Best Impression Dental: Dr. Alicia G. Burton, DDS",
      "address": "Medical Lake, WA, United States",
      "phone": "+1 509-260-8929",
      "url": "https://www.bestimpressiondental.com/?utm_source=google&utm_medium=local&utm_campaign=gmb",
      "zip": "99022"
    },
    {
      "name": "Bonney Lake Family Dental Care",
      "address": "Bonney Lake, WA, United States",
      "phone": "+1 253-826-9000",
      "url": "http://bonney-lake.wafamilydentistry.com/",
      "zip": "98391"
    },
    {
      "name": "Light Dental Studios of Bonney Lake",
      "address": "Bonney Lake, WA, United States",
      "phone": "+1 253-863-5188",
      "url": "http://www.lightdentalstudios.com/bonney-lake-dentist-office.html",
      "zip": "98391"
    },
    {
      "name": "Washington Dental Clinic",
      "address": "Seattle, WA, United States",
      "phone": "+1 206-722-8211",
      "url": "http://www.wadentalclinic.com/",
      "zip": "98118"
    },
    {
      "name": "Sunrise Dental Sequim",
      "address": "Sequim, WA, United States",
      "phone": "+1 360-639-3355",
      "url": "http://www.sunrisedental.com/",
      "zip": "98382"
    },
    {
      "name": "Sound Dentistry",
      "address": "Anacortes, WA, United States",
      "phone": "+1 360-293-8421",
      "url": "http://www.anacortesdentist.com/",
      "zip": "98221"
    },
    {
      "name": "Hackney Family Dentistry | Dentist Shelton, WA",
      "address": "Shelton, WA, United States",
      "phone": "+1 360-426-1676",
      "url": "https://drhackney.com/",
      "zip": "98584"
    },
    {
      "name": "Comfort Dental West Tacoma, WA",
      "address": "Tacoma, WA, United States",
      "phone": "+1 253-752-6349",
      "url": "https://comfortdental.com/dentist-west-tacoma",
      "zip": "98406"
    },
    {
      "name": "Mountain View Dental Center",
      "address": "Ellensburg, WA, United States",
      "phone": "+1 509-962-2755",
      "url": "http://ellensburgdentist.com/",
      "zip": "98926"
    },
    {
      "name": "Stellar Kids Dentistry Everett",
      "address": "Everett, WA, United States 路 In PARK PLACE PLAZA",
      "phone": "+1 425-212-1810",
      "url": "http://www.stellarkids.com/",
      "zip": "98208"
    },
    {
      "name": "Optima Dental Spa",
      "address": "Bellevue, WA, United States 路 In Bellevue Place Building",
      "phone": "+1 425-688-1345",
      "url": "https://optimadental.com/bellevue-dentist/",
      "zip": "98004"
    },
    {
      "name": "Sunrise Dental Ellensburg",
      "address": "Ellensburg, WA, United States",
      "phone": "+1 509-361-5500",
      "url": "https://sunrisedental.com/",
      "zip": "98926"
    },
    {
      "name": "Olympia Family Dental",
      "address": "Olympia, WA, United States",
      "phone": "+1 360-352-6500",
      "url": "https://www.olympiadentaloffice.com/",
      "zip": "98501"
    }
  ]
}