{
  "data": [
    {
      "name": "Washington Primary Care Physicians",
      "address": "660 Pennsylvania Ave. SE #10",
      "phone": "+1 202-546-4504",
      "url": "https://www.medstarhealth.org/mmg-wpcp/",
      "zip": "20003"
    },
    {
      "name": "Price Medical",
      "address": "1330 New Hampshire Ave NW",
      "phone": "+1 202-463-0220",
      "url": "http://www.pricemedical.com/",
      "zip": "20036"
    },
    {
      "name": "Dupont Circle Physicians Group",
      "address": "1737 20th St NW",
      "phone": "+1 202-745-0201",
      "url": "http://www.dupontdocs.com/",
      "zip": "20009"
    },
    {
      "name": "Washington, DC Internist & Primary Care Physician",
      "url": "http://www.drrobertenelow.com/contact/",
      "zip": "20036"
    },
    {
      "name": "DC Primary Care- Dr. Shalini Sitzmann",
      "address": "1140 19th St NW Suite 810",
      "phone": "+1 202-506-4161",
      "url": "http://www.dcprimarycare.com/",
      "zip": "20036"
    },
    {
      "name": "Mc Mackin Stark Zimnoch",
      "address": "2311 M St NW",
      "phone": "+1 202-296-0043",
      "url": "http://www.westenddocs.com/",
      "zip": "20037"
    },
    {
      "name": "Megha Mendiratta, MD",
      "address": "1115 U St NW #201",
      "phone": "+1 202-618-3790",
      "url": "http://comprehensiveprimarycare.com/providers/megha-mendiratta/",
      "zip": "20009"
    },
    {
      "name": "Young Doctors DC",
      "url": "https://www.youngdoctorsdc.org/about-us",
      "zip": "20020"
    },
    {
      "name": "Dr. Shyrl I. Sistrunk, MD",
      "address": "915 Half St SE",
      "phone": "+1 202-546-4504",
      "url": "https://www.medstarhealth.org/doctor/dr-shyrl-iovia-sistrunk-md/?utm_campaign=mhs_citations&utm_medium=ad_listings&utm_source=rio_seo&utm_term=mmg_doc",
      "zip": "20003"
    },
    {
      "name": "GW Immediate & Primary Care: Dr. Michael J. Horan, MD",
      "address": "2902 Porter St NW",
      "phone": "+1 202-525-5287",
      "url": "http://www.gwdocsipc.com/",
      "zip": "20008"
    },
    {
      "name": "Joel C. Ang, MD PC",
      "address": "1759 Q St NW",
      "phone": "+1 202-667-5041",
      "url": "http://qstreetmds.com/",
      "zip": "20009"
    },
    {
      "name": "Dr. Richard Kennedy, MD",
      "address": "1133 21st St. NW Building 2, 6th floor",
      "phone": "+1 202-416-2000",
      "url": "https://www.medstarhealth.org/doctor/dr-richard-o-kennedy-md/?utm_campaign=mhs_citations&utm_medium=ad_listings&utm_source=rio_seo&utm_term=mmg_doc",
      "zip": "20036"
    },
    {
      "name": "Ashesh Patel, MD",
      "address": "1901 R St NW",
      "phone": "+1 202-296-4897",
      "url": "http://www.drpatel.mymedfusion.com/",
      "zip": "20009"
    },
    {
      "name": "William A. Condrell, MD PC",
      "address": "4910 Massachusetts Ave NW Suite 114",
      "phone": "+1 202-244-0812",
      "url": "http://www.springvalleyim.com/",
      "zip": "20016"
    },
    {
      "name": "Dr. Christopher McMackin and Dr. Lawrence A. Zimnoch, MD",
      "address": "2311 M St NW",
      "phone": "+1 202-296-0043",
      "url": "http://dr-christopher.jany.io/",
      "zip": "20037"
    },
    {
      "name": "Dr. Sunil Kalra, MD",
      "address": "915 Half St SE",
      "phone": "+1 202-546-4504",
      "url": "https://www.medstarhealth.org/doctor/dr-sunil-kalra-md/?utm_campaign=mhs_citations&utm_medium=ad_listings&utm_source=rio_seo&utm_term=mmg_doc",
      "zip": "20003"
    },
    {
      "name": "Dr. Timothy A. Price, MD",
      "address": "1330 New Hampshire Ave NW",
      "phone": "+1 202-463-0220",
      "url": "http://www.pricemedical.com/",
      "zip": "20036"
    },
    {
      "name": "Mussenden Philip L MD",
      "address": "1647 Benning Rd NE # 300B",
      "phone": "+1 202-396-4774",
      "zip": "20002"
    },
    {
      "name": "Dr. Robin Davis, MD",
      "address": "1133 21st St. NW Building 2, 6th Floor",
      "phone": "+1 202-416-2000",
      "url": "https://www.medstarhealth.org/doctor/dr-robin-elaine-davis-md/?utm_campaign=mhs_citations&utm_medium=ad_listings&utm_source=rio_seo&utm_term=mmg_doc?utm_campaign=mhs_citations&utm_medium=ad_listings&utm_source=rio_seo&utm_term=mmg_doc",
      "zip": "20036"
    },
    {
      "name": "Dr. Bruce S. Rashbaum, MD",
      "address": "1640 Rhode Island Ave NW # 800",
      "phone": "+1 202-822-6311",
      "url": "http://www.dcdocs.com/",
      "zip": "20036"
    }
  ]
}