{
  "data": [
    {
      "name": "Black Nurses Association-Greater Wa",
      "url": "http://www.bnaofgwdca.org/",
      "zip": "20012"
    },
    {
      "name": "Capital City Nurses",
      "address": "4900 Massachusetts Ave NW Suite 330",
      "phone": "+1 202-243-0110",
      "url": "http://capitalcitynurses.com/",
      "zip": "20016"
    },
    {
      "name": "District of Columbia Nurses",
      "address": "5100 Wisconsin Ave NW #306",
      "phone": "+1 202-244-2705",
      "url": "http://www.dcna.org/",
      "zip": "20016"
    },
    {
      "name": "American Association of Nurse",
      "url": "http://www.nursingworld.org/",
      "zip": "20001"
    },
    {
      "name": "Family & Nursing Care Inc",
      "url": "https://www.familynursingcare.com/"
    },
    {
      "name": "Conway School of Nursing at The Catholic University of America",
      "address": "620 Michigan Avenue NE Gowan Hall",
      "phone": "+1 202-319-6462",
      "url": "https://nursing.catholic.edu/?utm_source=Yext%20GMB&utm_medium=organic%20search&utm_campaign=Yext",
      "zip": "20064"
    },
    {
      "name": "Capital City Nurses",
      "address": "Chevy Chase, MD, United States",
      "phone": "+1 301-652-4344",
      "url": "https://capitalcitynurses.com/",
      "zip": "20815"
    },
    {
      "name": "American Academy of Nursing",
      "url": "http://www.aannet.org/",
      "zip": "20005"
    },
    {
      "name": "National Organization of Nurse Practitioner Faculties",
      "url": "http://www.nonpf.org/",
      "zip": "20036"
    },
    {
      "name": "MedStar VNA",
      "url": "https://www.medstarvna.org/about-us/history/",
      "zip": "20006"
    },
    {
      "name": "VNAA - The Visiting Nurse Associations of America",
      "phone": "+1 571-527-1520",
      "url": "http://www.vnaa.org/",
      "zip": "20008"
    },
    {
      "name": "American Association of Colleges of Nursing",
      "address": "655 K St NW #750",
      "phone": "+1 202-463-6930",
      "url": "http://www.aacnnursing.org/",
      "zip": "20001"
    },
    {
      "name": "National League For Nursing",
      "address": "2600 Virginia Ave NW Â· In Watergate Complex Real Estate",
      "phone": "+1 202-909-2500",
      "url": "https://www.nln.org/",
      "zip": "20037"
    },
    {
      "name": "School of Nursing & Health Studies",
      "address": "3700 Reservoir Rd NW",
      "phone": "+1 202-687-0100",
      "url": "http://nhs.georgetown.edu/",
      "zip": "20007"
    },
    {
      "name": "Nursing Assistant Academy",
      "phone": "+1 202-748-5479",
      "url": "http://nassistantacademy.com/",
      "zip": "20003"
    },
    {
      "name": "Association of Women's Health, Obstetric and Neonatal Nurses (AWHONN)",
      "url": "https://www.awhonn.org/",
      "zip": "20036"
    }
  ]
}