{
  "data": [
    {
      "name": "Buckley Veterinary Hospital",
      "address": "Buckley, WA, United States",
      "phone": "+1 360-829-1515",
      "url": "https://buckleyvet.com/?utm_source=google&utm_medium=organic&utm_campaign=buckley_vet_gmb&utm_content=gmb",
      "zip": "98321"
    },
    {
      "name": "Washington State Veterinary Medical Association",
      "address": "Snoqualmie, WA, United States · In Venture commerce center",
      "phone": "+1 425-396-3191",
      "url": "https://wsvma.org/",
      "zip": "98065"
    },
    {
      "name": "Belltowne Veterinary Center",
      "address": "Belfair, WA, United States",
      "phone": "+1 360-277-3800",
      "url": "https://www.belltownevetcenter.com/",
      "zip": "98528"
    },
    {
      "name": "Rolling Hills Veterinary Clinic",
      "address": "Winlock, WA, United States",
      "phone": "+1 360-785-4596",
      "url": "https://www.rollinghillsveterinary.com/",
      "zip": "98596"
    },
    {
      "name": "Hunter Veterinary Clinic",
      "address": "Spokane, WA, United States",
      "phone": "+1 509-327-9354",
      "url": "http://huntervet.com/",
      "zip": "99201"
    },
    {
      "name": "Cascade Veterinary Clinic",
      "address": "Buckley, WA, United States",
      "phone": "+1 360-829-1880",
      "url": "http://cascadevetbuckley.com/",
      "zip": "98321"
    },
    {
      "name": "Airport West Animal Clinic & Kennel Club",
      "address": "Yakima, WA, United States",
      "phone": "+1 509-966-8460",
      "url": "http://airportwestanimalclinic.com/",
      "zip": "98903"
    },
    {
      "name": "Mission Vet Clinic and Birth Control Center",
      "address": "Kent, WA, United States · In Crossgate Shopping Center",
      "phone": "+1 253-520-0700",
      "zip": "98032"
    },
    {
      "name": "Best Friend's Veterinary Center",
      "address": "Oak Harbor, WA, United States",
      "phone": "+1 360-679-6796",
      "zip": "98277"
    },
    {
      "name": "Cascade Veterinary Center, PS",
      "address": "Marysville, WA, United States",
      "phone": "+1 360-659-2323",
      "url": "http://cascadevet.com/",
      "zip": "98270"
    },
    {
      "name": "All Creatures Animal Hospital",
      "address": "Bremerton, WA, United States",
      "phone": "+1 360-377-3801",
      "url": "http://www.allcreatures24hr.com/",
      "zip": "98312"
    },
    {
      "name": "Willapa Veterinary Service",
      "address": "Grayland, WA, United States",
      "phone": "+1 360-267-4444",
      "url": "https://www.willapavet.com/",
      "zip": "98547"
    },
    {
      "name": "Valley Veterinary Clinic WA",
      "address": "Spokane Valley, WA, United States",
      "phone": "+1 509-926-4206",
      "url": "http://valleyveterinaryclinicwa.com/",
      "zip": "99212"
    },
    {
      "name": "Cascade West Veterinary Hospital",
      "address": "Centralia, WA, United States",
      "phone": "+1 360-736-3361",
      "url": "https://cascadewestvet.com/",
      "zip": "98531"
    },
    {
      "name": "Greywolf Veterinary Hospital",
      "address": "Sequim, WA, United States",
      "phone": "+1 360-683-2106",
      "url": "https://www.greywolfvet.com/?utm_source=gmb&utm_medium=organic&y_source=1_MTE2Njg2NDUtNzE1LWxvY2F0aW9uLmdvb2dsZV93ZWJzaXRlX292ZXJyaWRl",
      "zip": "98382"
    },
    {
      "name": "Arlington Veterinary Hospital",
      "address": "Arlington, WA, United States",
      "phone": "+1 360-572-0345",
      "url": "http://www.arlington-vet.com/",
      "zip": "98223"
    },
    {
      "name": "Parker Way Veterinary Clinic",
      "address": "Mt Vernon, WA, United States",
      "phone": "+1 360-424-7387",
      "url": "http://parkerwayvet.com/",
      "zip": "98273"
    },
    {
      "name": "Kulshan Veterinary Hospital",
      "address": "Lynden, WA, United States",
      "phone": "+1 360-354-5095",
      "url": "http://www.kulshanvet.com/",
      "zip": "98264"
    },
    {
      "name": "Ellensburg Animal Hospital",
      "address": "Ellensburg, WA, United States",
      "phone": "+1 509-925-2833",
      "url": "https://eburgvet.com/",
      "zip": "98926"
    },
    {
      "name": "Mid Columbia Veterinary Clinic",
      "address": "Goldendale, WA, United States",
      "phone": "+1 509-773-4363",
      "url": "http://www.midcolumbiavetclinic.com/",
      "zip": "98620"
    }
  ]
}