{
  "data": [
    {
      "name": "Bellevue Dentists",
      "address": "14655 Bel-Red Rd #101",
      "phone": "+1 425-641-4111",
      "url": "https://www.bellevue-dentist.com/",
      "zip": "98007"
    },
    {
      "name": "Bellevue Dental Arts",
      "address": "13333 Bel-Red Rd #200",
      "phone": "+1 425-644-8445",
      "url": "http://www.bellevuedentalarts.com/",
      "zip": "98005"
    },
    {
      "name": "Dentistry of Bellevue",
      "address": "14605 SE 36th St",
      "phone": "+1 425-643-3912",
      "url": "http://www.dentistryofbellevue.com/",
      "zip": "98006"
    },
    {
      "name": "Dentistry In Bellevue: Brent Spencer DDS, Kooroush Mansourzadeh DDS",
      "address": "1200 112th Ave NE St C-170",
      "phone": "+1 425-455-1076",
      "url": "http://www.dentistryinbellevue.com/",
      "zip": "98004"
    },
    {
      "name": "Downtown Bellevue Dental",
      "address": "410 Bellevue Way SE Suite #302",
      "phone": "+1 425-454-4610",
      "url": "http://www.downtownbellevuedental.com/",
      "zip": "98004"
    },
    {
      "name": "Family Dental Care Of Bellevue",
      "address": "4100 Factoria Blvd SE",
      "phone": "+1 425-643-5778",
      "url": "http://www.familydentalcareofbellevue.com/?utm_source=Google%20Maps&utm_medium=Organic",
      "zip": "98006"
    },
    {
      "name": "Brookside Dental",
      "address": "13715 Bel-Red Rd",
      "phone": "+1 425-643-2818",
      "url": "https://www.brooksidedental.com/",
      "zip": "98005"
    },
    {
      "name": "Bellevue Family Dentistry",
      "address": "1299 156th Ave NE #115 · In Pacific Village Properties, LLC",
      "phone": "+1 425-614-1600",
      "url": "https://bellevuefamilydentist.com/",
      "zip": "98007"
    },
    {
      "name": "Bellevue Dentistry",
      "address": "12917 SE 38th St #202",
      "phone": "+1 425-747-8052",
      "url": "https://www.bellevuedentistry.com/",
      "zip": "98006"
    },
    {
      "name": "Optima Dental Spa",
      "address": "10500 NE 8th St · In Bellevue Place Building",
      "phone": "+1 425-688-1345",
      "url": "https://optimadental.com/bellevue-dentist/",
      "zip": "98004"
    },
    {
      "name": "Bellevue Pediatric Dentistry",
      "address": "875 140th Ave NE #200",
      "phone": "+1 425-614-3777",
      "url": "https://www.kidsdentistofbellevue.com/?utm_source=gmb_auth",
      "zip": "98005"
    },
    {
      "name": "Brilliant Smiles Bellevue",
      "address": "13033 Bel-Red Rd #230",
      "phone": "+1 425-243-6468",
      "url": "http://www.brilliantsmilesbellevue.com/",
      "zip": "98005"
    },
    {
      "name": "Artisan Dental",
      "address": "188 106th Ave NE #410 · In Bellevue Pacific Tower",
      "phone": "+1 425-454-2005",
      "url": "https://artisandentalbellevue.com/?utm_source=GMB&utm_medium=organic&utm_campaign=DevOptimization&utm_content=Website",
      "zip": "98004"
    },
    {
      "name": "Peak Dental of Bellevue",
      "address": "3626 Factoria Blvd SE · In Factoria Village",
      "phone": "+1 425-786-9702",
      "url": "https://www.peak-dental.com/locations/bellevue/?utm_source=gmb-bellevue&utm_medium=organic&utm_campaign=website",
      "zip": "98006"
    },
    {
      "name": "Advanced Dentistry Northwest",
      "address": "11015 Main St",
      "phone": "+1 425-451-7388",
      "url": "http://www.thebellevuedentist.com/",
      "zip": "98004"
    },
    {
      "name": "Cooley Smiles",
      "address": "4100 Factoria Blvd SE suite c",
      "phone": "+1 425-747-7000",
      "url": "https://www.cooleysmiles.com/",
      "zip": "98006"
    },
    {
      "name": "Willamette Dental Group - Bellevue",
      "address": "626 120th Ave NE Suite B210 · In Park 120",
      "phone": "+1 855-433-6825",
      "url": "https://locations.willamettedental.com/wa/bellevue/626-120th-avenue-ne.html",
      "zip": "98005"
    },
    {
      "name": "Da Vinci Dental",
      "address": "909 112th Ave NE · In Elements Apartments",
      "phone": "+1 425-409-9999",
      "url": "http://www.topbellevuedentist.com/",
      "zip": "98004"
    },
    {
      "name": "Bellevue Dental Excellence",
      "address": "14700 NE 8th St Unit 210 · In Cascadia Office Park",
      "phone": "+1 425-378-1600",
      "url": "http://www.bellevuedentalexcellence.com/",
      "zip": "98007"
    },
    {
      "name": "Bellevue Family & Cosmetic Dentistry",
      "address": "14655 Bel-Red Rd F103 · In Forest Office Park",
      "phone": "+1 425-641-1902",
      "url": "https://www.bellevuedentaloffice.com/",
      "zip": "98007"
    }
  ]
}