{
  "data": [
    {
      "name": "Lehmbecker Law",
      "address": "400 108th Ave NE Unit 500",
      "phone": "+1 425-455-3186",
      "url": "https://www.lehmlaw.com/",
      "zip": "98004"
    },
    {
      "name": "Premier Law Group, PLLC",
      "address": "1408 140th Pl NE Ste A",
      "phone": "+1 425-214-1680",
      "url": "https://plg-pllc.com/",
      "zip": "98007"
    },
    {
      "name": "MDK Law",
      "address": "777 108th Ave NE Unit 2000 · In Symetra Financial Center",
      "phone": "+1 425-455-9610",
      "url": "https://www.mdklaw.com/",
      "zip": "98004"
    },
    {
      "name": "Jason Newcombe, Bellevue Criminal Defense, DUI, Divorce and Family Law, Bankruptcy",
      "address": "14205 SE 36th St #100A · In Premier Workspaces – Coworking & Office Space",
      "phone": "+1 425-278-1130",
      "url": "https://washingtonstateattorneys.com/bellevue",
      "zip": "98006"
    },
    {
      "name": "Law Offices of Molly B. Kenny",
      "address": "9 Lake Bellevue Dr #204",
      "phone": "+1 425-460-0550",
      "url": "https://www.mollybkenny.com/?utm_source=google&utm_medium=local&utm_campaign=gmb_listing",
      "zip": "98005"
    },
    {
      "name": "Bellevue Law",
      "address": "4456, 10900 NE 8th St #1670 · In Plaza Center",
      "phone": "+1 425-453-9436",
      "zip": "98004"
    },
    {
      "name": "Law Offices of Phillip L. Weinberg",
      "address": "601 108th Ave NE suite 1900-1409 · In Key Center",
      "phone": "+1 425-455-4784",
      "url": "https://attorneyphilweinberg.com/",
      "zip": "98004"
    },
    {
      "name": "Hansen Law Group, PS",
      "address": "12000 NE 8th St #202",
      "phone": "+1 425-709-6762",
      "url": "http://www.hansenlaw.com/",
      "zip": "98005"
    },
    {
      "name": "McKinley Irvin",
      "address": "601 108th Ave NE Unit 1900 · In Key Center",
      "phone": "+1 425-329-3861",
      "url": "https://www.mckinleyirvin.com/locations/bellevue/?utm_source=GMB&utm_medium=organic&utm_campaign=Bellevue",
      "zip": "98004"
    },
    {
      "name": "Envision Family Law",
      "address": "10655 NE 4th St #208 · In Key Bank Bldg",
      "phone": "+1 425-598-0501",
      "url": "http://www.envisionfamilylaw.com/",
      "zip": "98004"
    },
    {
      "name": "Robert C. Kaufman, Attorney at Law",
      "address": "2155 112th Ave NE · In Bellewood Office Park",
      "phone": "+1 425-615-7222",
      "url": "http://www.rcklegal.com/",
      "zip": "98004"
    },
    {
      "name": "Weintraub Law Office, PLLC",
      "address": "14205 SE 36th St Ste. 100",
      "phone": "+1 425-374-4045",
      "url": "https://www.weintraub-law.com/",
      "zip": "98006"
    },
    {
      "name": "Stein, Lotzkar & Starr, P.S.",
      "address": "2840 Northup Way # 140 · In NORTHUP WEST",
      "phone": "+1 425-576-0026",
      "url": "https://www.slsps.com/?utm_source=GMB&utm_medium=organic&utm_campaign=Bellevue",
      "zip": "98004"
    },
    {
      "name": "Jones Law Group",
      "address": "11819 NE 34th St",
      "phone": "+1 425-576-8899",
      "zip": "98005"
    },
    {
      "name": "Vindicate Criminal Law, Bellevue",
      "phone": "+1 425-230-3765",
      "url": "http://vindicatelaw.com/?utm_source=google&utm_medium=organic&utm_campaign=gmb&utm_content=vindicatebellevue",
      "zip": "98004"
    },
    {
      "name": "Meyer Law Firm PC",
      "url": "http://www.meyerlaw.net/",
      "zip": "98004"
    },
    {
      "name": "John T Law, PLLC",
      "address": "700 112th Ave NE Suite 300",
      "phone": "+1 425-533-2156",
      "url": "http://www.johntlaw.com/",
      "zip": "98004"
    },
    {
      "name": "Rubinstein Law Offices",
      "address": "875 140th Ave NE",
      "phone": "+1 425-688-1100",
      "url": "http://www.brubinstein.com/",
      "zip": "98005"
    }
  ]
}