{
  "data": [
    {
      "name": "Midtown Dental Care",
      "address": "155 E 55th St Suite 301",
      "phone": "+1 212-385-1959",
      "url": "http://www.midtowndentalspecialists.com/?utm_source=gmb_auth",
      "zip": "10022"
    },
    {
      "name": "Midtown Dental Services",
      "address": "211 E 43rd St #1304",
      "phone": "+1 212-845-9717",
      "url": "https://midtowndentalservices.com/?utm_source=GMB&utm_medium=organic&utm_campaign=DevOptimization&utm_content=Website",
      "zip": "10017"
    },
    {
      "name": "Midtown Manhattan Dental Care - Dr. Jaskaren Randhawa, DMD, MPH",
      "address": "1501 Broadway #502 · Near Times Square",
      "phone": "+1 212-575-7740",
      "url": "https://midtowndentalcarenyc.com/?utm_campaign=gmb",
      "zip": "10036"
    },
    {
      "name": "Midtown Dental Group West",
      "address": "241 W 37th St Ground Floor-Street Level",
      "phone": "+1 212-730-4440",
      "url": "http://www.midtowndentalgroup.com/",
      "zip": "10018"
    },
    {
      "name": "Manhattan Dental Associates",
      "address": "2 W 45th St",
      "phone": "+1 212-944-2836",
      "url": "http://manhattan-dental.com/",
      "zip": "10036"
    },
    {
      "name": "Midtown Dental Excellence",
      "address": "515 Madison Ave Suite #3303 · Near the St. Patrick's Cathedral",
      "phone": "+1 212-751-1333",
      "url": "https://www.midtowndentalexcellence.com/",
      "zip": "10022"
    },
    {
      "name": "Midtown Dental Care Associates",
      "address": "12 E 41st St Suite 1100",
      "phone": "+1 212-685-4730",
      "url": "https://www.midtowndentalcareassociates.com/?utm_source=gmb&utm_medium=organic",
      "zip": "10017"
    },
    {
      "name": "Midtown Manhattan Dental Arts",
      "address": "140 W 58th St #2",
      "phone": "+1 212-757-3879",
      "url": "http://www.midtownmanhattandental.com/",
      "zip": "10019"
    },
    {
      "name": "New York General Dentistry - Manhattan",
      "address": "150 E 58th St",
      "phone": "+1 212-838-0842",
      "url": "https://newyorkgeneraldentistry.com/?utm_source=GMBlisting&utm_medium=organic",
      "zip": "10155"
    },
    {
      "name": "Dentist in Midtown East",
      "phone": "+1 212-685-1717",
      "url": "http://370dental.com/contact-dentist-10017.html",
      "zip": "10017"
    },
    {
      "name": "Midtown Dental Group",
      "phone": "+1 212-730-4440",
      "url": "https://www.midtowndentalgroup.com/",
      "zip": "10018"
    },
    {
      "name": "Midtown Dental",
      "url": "http://www.midtowndentalnyc.com/",
      "zip": "10019"
    },
    {
      "name": "Midtown Dental Group NoMad",
      "address": "1158 Broadway 3rd floor · Near Madison Square Park",
      "phone": "+1 212-213-4029",
      "url": "https://midtowndentalgroup.com/",
      "zip": "10001"
    },
    {
      "name": "New York Midtown Dental, PC: Larisa Tkach, DDS",
      "address": "1560 Broadway #601 · Near Times Square",
      "phone": "+1 212-278-8105",
      "url": "http://www.nymidtowndental.com/",
      "zip": "10036"
    },
    {
      "name": "New York & Manhattan Cosmetic Dentistry: Dr. Rastegar, D.D.S.",
      "address": "340 Madison Ave #4b",
      "phone": "+1 212-692-9090",
      "url": "https://www.manhattancosmeticdentist.com/?utm_source=Google%20My%20Business&utm_medium=Social%20Dental%20Network&utm_campaign=Local",
      "zip": "10173"
    },
    {
      "name": "Manhattan Dental Health",
      "address": "230 Park Ave #1164 · In Access New York Group",
      "phone": "+1 212-928-1000",
      "url": "http://www.manhattandentalhealth.com/",
      "zip": "10169"
    },
    {
      "name": "The Smilist Dental Manhattan",
      "address": "119 W 57th St #512",
      "phone": "+1 212-262-6054",
      "url": "http://www.thesmilist.com/midtown-dentist",
      "zip": "10019"
    },
    {
      "name": "Midtown East Dental",
      "url": "https://www.midtowneastdental.com/about-us",
      "zip": "10022"
    },
    {
      "name": "Midtown Dental Group UES",
      "address": "130 E 63rd St #1A",
      "phone": "+1 212-751-7725",
      "url": "http://www.midtowndentalgroup.com/",
      "zip": "10065"
    },
    {
      "name": "New York Midtown Dental, PC: Marvin Brody, DDS",
      "address": "1560 Broadway #601 · Near Times Square",
      "phone": "+1 212-278-8105",
      "url": "http://www.nymidtowndental.com/",
      "zip": "10036"
    }
  ]
}