{
  "data": [
    {
      "name": "Ryan Brennan & Donnelly LLP",
      "address": "131 Tulip Ave",
      "phone": "+1 516-328-1100",
      "url": "http://www.rbdllp.net/",
      "zip": "11001"
    },
    {
      "name": "Corbett William J",
      "address": "113 S Tyson Ave",
      "phone": "+1 516-775-6849",
      "url": "http://www.corbettpr.com/WHOWEARE/ManagementTeam/WilliamJCorbettSr/tabid/78/Default.aspx",
      "zip": "11001"
    },
    {
      "name": "Law Firm of Kyce Siddiqi, P.C.",
      "address": "122 Plainfield Ave",
      "phone": "+1 646-930-4488",
      "url": "http://www.nyattorneylawyer.com/",
      "zip": "11001"
    },
    {
      "name": "Langer Steven H",
      "address": "199 Jericho Turnpike # 203",
      "phone": "+1 718-347-5100",
      "zip": "11001"
    },
    {
      "name": "Steven Wilhelm Kaiser, P.C.",
      "url": "http://www.swklaw.com/"
    },
    {
      "name": "Law Offices of Robert S Fader",
      "phone": "+1 516-437-9500",
      "url": "http://www.robertfaderpc.com/",
      "zip": "11001"
    },
    {
      "name": "The Law Office of Sami Perez",
      "address": "122 Plainfield Ave",
      "phone": "+1 516-216-5060",
      "url": "https://www.affordablenylawyer.com/",
      "zip": "11001"
    },
    {
      "name": "Lubin & St Louis Attorneys",
      "address": "229 Jericho Turnpike",
      "phone": "+1 516-354-0149",
      "zip": "11001"
    },
    {
      "name": "The Crawford Law Firm",
      "address": "244-16 Jericho Turnpike",
      "phone": "+1 516-492-3147",
      "zip": "11001"
    },
    {
      "name": "Baron & Goodsell",
      "address": "New Hyde Park, NY, United States",
      "phone": "+1 516-328-3254",
      "zip": "11040"
    },
    {
      "name": "Goldberg Peter D",
      "address": "24902 Jericho Turnpike",
      "phone": "+1 718-479-3500",
      "zip": "11001"
    },
    {
      "name": "Giuffr√© Law Offices, P.C. - Long Island Accident Lawyers",
      "address": "Stewart Manor, NY, United States",
      "phone": "+1 516-358-5300",
      "url": "https://www.giuffrelaw.com/",
      "zip": "11530"
    }
  ]
}