{
  "data": [
    {
      "name": "Baron & Goodsell",
      "address": "608 Jericho Turnpike",
      "phone": "+1 516-328-3254",
      "zip": "11040"
    },
    {
      "name": "Sonnenfeldt Neil D",
      "address": "813 Jericho Turnpike",
      "phone": "+1 516-775-7007",
      "url": "http://www.gmbspc.com/",
      "zip": "11040"
    },
    {
      "name": "Andrew Dutton Esq PC",
      "address": "Garden City, NY, United States",
      "phone": "+1 516-308-3670",
      "url": "http://www.immigration-counselor.builderspot.com/",
      "zip": "11530"
    },
    {
      "name": "Gutman Mintz Baker",
      "address": "813 Jericho Turnpike",
      "phone": "+1 516-775-7007",
      "url": "http://www.gmbspc.com/",
      "zip": "11040"
    },
    {
      "name": "Law Office of Cohen & Jaffe, LLP",
      "address": "2001 Marcus Ave W295",
      "phone": "+1 516-882-3538",
      "url": "https://www.cohenjaffe.com/?utm_source=google&utm_medium=organic&utm_campaign=gmb-listing",
      "zip": "11042"
    },
    {
      "name": "Vinod Kearke ESQ",
      "address": "1611 Hillside Avenue",
      "phone": "+1 516-326-3350",
      "zip": "11040"
    },
    {
      "name": "Baker Jesse R",
      "url": "http://www.gmbspc.com/",
      "zip": "11040"
    },
    {
      "name": "Law Offices of James T. Murphy",
      "address": "Floral Park, NY, United States",
      "phone": "+1 516-775-7008",
      "url": "https://lawofficesofjamestmurphy.com/",
      "zip": "11001"
    }
  ]
}