{
  "data": [
    {
      "name": "As You Wish Electric",
      "address": "",
      "phone": "+1 206-783-2525",
      "url": "http://asyouwishelectric.com/",
      "zip": "98134"
    },
    {
      "name": "Kemly Electric Inc",
      "address": "",
      "phone": "+1 206-782-1670",
      "url": "http://www.kemlyelectric.com/",
      "zip": "98107"
    },
    {
      "name": "Mr. Electric of Greater Seattle",
      "address": "",
      "phone": "+1 206-319-5016",
      "url": "https://mrelectric.com/greater-seattle/?utm_source=gmb&utm_campaign=local&utm_medium=organic",
      "zip": "98134"
    },
    {
      "name": "Mirsky Electric",
      "phone": "+1 206-931-4395",
      "url": "http://www.mirskyelectric.com/"
    },
    {
      "name": "Eco Electric & Plumbing : Electricians & Plumbers Serving Seattle",
      "phone": "+1 206-222-9640",
      "url": "https://www.ecoserviceswa.com/?utm_source=GMB&utm_medium=organic&utm_campaign=seattle"
    },
    {
      "name": "Exact Electric",
      "address": "",
      "phone": "+1 206-434-6915",
      "url": "https://exactelectric.com/?utm_source=Google&utm_medium=Organic&utm_campaign=GMB",
      "zip": "98125"
    },
    {
      "name": "Seatown Electric Plumbing Heating and Air",
      "phone": "+1 425-278-6850",
      "url": "https://www.seatownservices.com/?utm_source=GMB&utm_medium=organic&utm_campaign=seattle"
    },
    {
      "name": "Seattle Electricians Today",
      "address": "",
      "phone": "+1 206-937-8495",
      "url": "https://www.seattleelectricianstoday.com/",
      "zip": "98116"
    },
    {
      "name": "Electrical Services",
      "address": "",
      "phone": "+1 206-285-7800",
      "zip": "98112"
    },
    {
      "name": "Electric Company of Seattle",
      "address": "",
      "phone": "+1 206-633-3896",
      "url": "https://www.elcose.com/",
      "zip": "98115"
    },
    {
      "name": "Brennan Electric",
      "address": "",
      "phone": "+1 206-513-7452",
      "url": "https://brennan-electric.com/?utm_source=GMBSocialClimb&utm_medium=BrennanElectric",
      "zip": "98168"
    },
    {
      "name": "Edison Electricians of Seattle",
      "address": "",
      "phone": "+1 206-350-1480",
      "zip": "98199"
    },
    {
      "name": "Omega Electricians Seattle",
      "phone": "+1 206-225-2244",
      "url": "http://www.omegaelectriciansseattlewa.com/"
    },
    {
      "name": "Seatown Electrician Â®",
      "phone": "+1 206-486-9867",
      "url": "https://seattleelectric.business.site/"
    },
    {
      "name": "Bowie Electric Service & Supplies Inc",
      "address": "",
      "phone": "+1 206-789-6500",
      "url": "http://www.bowieservice.com/",
      "zip": "98107"
    },
    {
      "name": "Seattle Electrician Service, Inc",
      "url": "http://www.seattleelectricianservice.com/"
    },
    {
      "name": "OHM Electrical Contracting",
      "address": "",
      "phone": "+1 206-678-6744",
      "url": "https://ohmelectricalcontracting.com/",
      "zip": "98108"
    },
    {
      "name": "Seattle Best Electricians",
      "phone": "+1 206-594-3907",
      "url": "https://seattle-best-electricians-electrical-supply-store.business.site/?utm_source=gmb&utm_medium=referral"
    }
  ]
}