{
  "data": [
    {
      "name": "CB Physiotherapy at Home in Mumbai",
      "phone": "02239972679",
      "url": "http://www.cbphysiotherapy.in/mumbai"
    },
    {
      "name": "Physiotherapy at Mumbai",
      "url": "https://physiotherapy-at-mumbai.business.site/?utm_source=gmb&utm_medium=referral",
      "zip": "400067"
    },
    {
      "name": "ReLiva Physiotherapy Tardeo",
      "address": "Everest Building, 156, Famous Cine Labs Apollo Spectra Hospital, Tardeo Road Behind",
      "phone": "09920991584",
      "url": "https://www.reliva.in/?utm_source=gmb",
      "zip": "400034"
    },
    {
      "name": "ReLiva Physiotherapy Clinic, Chembur",
      "address": "Bus Depot, Apollo Spectra Ujagar Compound, opp. Deonar",
      "phone": "09920991584",
      "url": "https://reliva.in/?utm_source=gmb",
      "zip": "400043"
    },
    {
      "name": "PHYSIOTHERAPY HOME VISITS MUMBAI",
      "phone": "09619566684",
      "url": "http://www.physioworld.org/"
    },
    {
      "name": "Dr Jha's Physioworld - Physiotherapy & Neuro Rehabilitation Centre, Chembur",
      "address": "CENTRAL BUILDING, 303, Shell Colony Rd",
      "phone": "09320539142",
      "url": "http://www.physioworld.org/",
      "zip": "400071"
    },
    {
      "name": "Physioline - Specialised Physiotherapy and Rehabilitation Centre",
      "address": "1A,Bldg no-34,Andheri Guruchhaya,Mainsh Nagar,, Four Bunglows,Andheri West",
      "phone": "09819297772",
      "url": "http://www.physioline.in/",
      "zip": "400053"
    },
    {
      "name": "Dr.Roshan sakpal : Sport Physiotherapist | Physiotherapist | Massage Therapist | Neuro Physiotherapy",
      "address": "propel physiotherapy Shop No. 4, Royal Accord Buidling, Tarun Bharat Rd, near Chakala",
      "phone": "07208195869",
      "url": "https://drroshan-sakpal.business.site/?utm_source=gmb&utm_medium=referral",
      "zip": "400099"
    },
    {
      "name": "Physiotherapy Centre",
      "address": "Ground Floor, Swashraya Co-operative Housing Society, Juhu Cross Lane, Upasara Ln",
      "zip": "400058"
    },
    {
      "name": "Physiotherapy Live",
      "address": "Deepak Building, Ground Floor, near Bagarkar College Brijwasi Sweets",
      "phone": "07710838196",
      "url": "https://physiotherapylive.business.site/?utm_source=gmb&utm_medium=referral",
      "zip": "400059"
    },
    {
      "name": "Prakruti Physiotherapy Clinic in Dahisar",
      "address": "Shop No. 7, Pathak Residency, N L Complex Road, Dahisar East",
      "phone": "09004088990",
      "zip": "400068"
    },
    {
      "name": "My Home Physio (Home visit Physiotherapy in South Mumbai)",
      "phone": "09920689423"
    },
    {
      "name": "Dr Swapnil Mate - Physiotherapist - bandra west",
      "address": "Momentum Physiotherapy, 3rd Floor, 302 Sri Krishna Building, New Link Rd",
      "phone": "09892981954",
      "url": "http://www.sportzhpe.in/",
      "zip": "400053"
    },
    {
      "name": "Dr.BHAVIKA PAREKH'S NEW RELEAF PHYSIO- Sports Physiotherapist and Dry cupping Therepy in Khar west Bandra mumbai",
      "address": "10th Floor, Makhija Royale, S.V.Road, Opp. khar RTO",
      "phone": "09930288335",
      "zip": "400052"
    },
    {
      "name": "PHYSIOWORLD, CHEMBUR",
      "address": "CENTRAL BUILDING, 303, SHELL COLONY ROAD, NEXT TO JENNY PHOTO STUDIO, CHEMBUR, C",
      "url": "http://www.physioworld.org/",
      "zip": "400071"
    },
    {
      "name": "SPARC - The Physiotherapy Hub",
      "address": "Maharashtra",
      "phone": "09987988888",
      "url": "http://www.sparcphysio.in/",
      "zip": "400049"
    },
    {
      "name": "Dr. Shannon Picardo - Best Physiotherapist/ Sports Physio",
      "address": "shop no.1 , makhdoomi palace , St. Anthony's road , near vakola masjid",
      "phone": "08898944140",
      "zip": "400055"
    },
    {
      "name": "Dr.Pooja Mehta( Sports & Spine Physiotherapist)-Physio Hub",
      "address": "101,PAi mansion, New Link Rd, above rich feel centre",
      "phone": "09987973866",
      "url": "https://drpoojamehta-sports-physiotherapist.business.site/?utm_source=gmb&utm_medium=referral",
      "zip": "400064"
    }
  ]
}