{
  "data": [
    {
      "name": "Indy Web Designers",
      "phone": "+1 812-350-3872",
      "url": "http://www.indywebdesigners.com/"
    },
    {
      "name": "NEXTFLY Web Design",
      "address": "9860 Westpoint Dr #700",
      "phone": "+1 317-219-3111",
      "url": "https://www.nextflywebdesign.com/",
      "zip": "46256"
    },
    {
      "name": "NexBit | E-commerce Web Design Agency Indianapolis | SEO Agency Indianapolis",
      "address": "120 E Market St Suite #1250",
      "phone": "+1 317-772-0449",
      "url": "https://www.nexbit.us/",
      "zip": "46204"
    },
    {
      "name": "BoxCrush Web Design",
      "address": "3905 Vincennes Rd #502 Â· In Alpha Office Suites",
      "phone": "+1 317-816-9353",
      "url": "https://www.boxcrush.com/",
      "zip": "46268"
    },
    {
      "name": "Circle City Web Design",
      "phone": "+1 317-460-7948",
      "url": "https://circlecitywebdesign.com/"
    },
    {
      "name": "Indianapolis Web Design",
      "address": "245 Palmyra Dr",
      "phone": "+1 317-449-9277",
      "url": "http://www.webdesignindianapolis.net/",
      "zip": "46239"
    },
    {
      "name": "Blue Group Solutions",
      "address": "120 E Market St #1256",
      "phone": "+1 317-728-9159",
      "url": "https://bluegroupsolutions.com/",
      "zip": "46204"
    },
    {
      "name": "SuperPixel - Web Design and Digital Consulting",
      "phone": "+1 317-395-3875",
      "url": "https://superpixel.co/",
      "zip": "46219"
    },
    {
      "name": "Intrepid Design Solutions : Indy Web Design",
      "address": "3111 W North St",
      "phone": "+1 317-426-9827",
      "url": "http://www.intrepiddesignsolutions.com/",
      "zip": "46222"
    },
    {
      "name": "Elance2K Web Design",
      "address": "10698 Whippoorwill Ln",
      "url": "http://elance2k.com/",
      "zip": "46231"
    },
    {
      "name": "Indianapolis Web Design",
      "address": "5110 W Pike Plaza Rd #25",
      "phone": "+1 317-449-9277",
      "url": "http://www.webdesignindianapolis.net/",
      "zip": "46254"
    },
    {
      "name": "Exceptional Web Design",
      "url": "http://www.exceptionalwebdesign.com/"
    },
    {
      "name": "Indy Web Inc",
      "address": "3151 Madison Ave # A",
      "phone": "+1 317-536-1201",
      "url": "http://www.indyweb.net/",
      "zip": "46227"
    },
    {
      "name": "Outburst Web, LLC",
      "address": "333 N Alabama St #350",
      "phone": "+1 317-503-1630",
      "url": "http://www.outburstweb.com/",
      "zip": "46204"
    },
    {
      "name": "EitBiz - Web Design & App Development Agency",
      "address": "8523 Red Oak Ct apt e",
      "phone": "+1 317-766-9035",
      "url": "https://www.eitbiz.com/",
      "zip": "46227"
    },
    {
      "name": "Firefly SEO & Web Design Agency",
      "phone": "+1 317-449-8042",
      "url": "https://fireflyseo.com/"
    }
  ]
}