{
  "data": [
    {
      "name": "Law Office of Frank Bruno, Jr.",
      "address": "6909 Myrtle Ave",
      "phone": "+1 718-418-5000",
      "url": "https://www.frankbrunolaw.com/?utm_source=gmb&utm_medium=organic&utm_campaign=gmb%20local",
      "zip": "11385"
    },
    {
      "name": "Deutsch & Schneider LLP",
      "address": "",
      "phone": "+1 718-417-1700",
      "url": "http://www.dandslaw.com/",
      "zip": "11385"
    },
    {
      "name": "The Estate Planning Law Group",
      "address": "",
      "phone": "+1 718-514-2066",
      "url": "http://www.aljlaw.com/",
      "zip": "11385"
    },
    {
      "name": "The Antonious Law Firm",
      "url": "http://www.antoniouslawfirm.com/",
      "zip": "11385"
    },
    {
      "name": "Silvagni & Como, PLLC Queens Office",
      "address": "",
      "phone": "+1 718-928-3355",
      "url": "http://silvagniandcomolaw.com/",
      "zip": "11385"
    },
    {
      "name": "Hendrie Joseph J",
      "address": "",
      "phone": "+1 718-386-8886",
      "zip": "11385"
    },
    {
      "name": "Anthony M. Battisti, Attorney at Law",
      "address": "",
      "phone": "+1 718-846-5843",
      "url": "http://www.battisticriminallawyer.com/",
      "zip": "11385"
    },
    {
      "name": "Ramo, Nashak, Brown & Garibaldi LLP",
      "address": "",
      "phone": "+1 718-386-4345",
      "url": "http://www.rnbattorneys.com/",
      "zip": "11385"
    },
    {
      "name": "Marzec Law Firm",
      "url": "http://www.marzeclaw.com/",
      "zip": "11385"
    },
    {
      "name": "Beck Law, P.C.",
      "address": "In The Shops at Atlas Park",
      "phone": "+1 516-388-7785",
      "url": "https://becklawny.com/",
      "zip": "11385"
    },
    {
      "name": "Brown Gregory J",
      "url": "http://www.rnbattorneys.com/",
      "zip": "11385"
    },
    {
      "name": "Steven E Kordisch Attorney at Law PC",
      "address": "",
      "phone": "+1 718-821-2400",
      "zip": "11385"
    },
    {
      "name": "The Grigoropoulos Law Group PLLC",
      "address": "Ridgewood, NY, United States",
      "phone": "+1 718-249-7447",
      "url": "http://www.grigorlawgroup.com/",
      "zip": "11385"
    },
    {
      "name": "Follender James",
      "url": "http://jfollenderlaw.com/glendale-ny/3524284",
      "zip": "11385"
    }
  ]
}