{
  "data": [
    {
      "name": "West Loop Veterinary Care",
      "address": "815 W Randolph St",
      "phone": "+1 312-421-2275",
      "url": "http://www.westloopvet.com/?utm_source=google&utm_medium=organic&utm_campaign=gmb&utm_term=website",
      "zip": "60607"
    },
    {
      "name": "Wicker Park Veterinary Clinic",
      "address": "1166 N Milwaukee Ave",
      "phone": "+1 773-227-9700",
      "url": "http://www.wickerparkvet.com/",
      "zip": "60642"
    },
    {
      "name": "Pets First",
      "address": "3413 N Broadway",
      "phone": "+1 773-904-8724",
      "url": "http://www.petsfirstchicago.com/",
      "zip": "60657"
    },
    {
      "name": "Chicago in Home Veterinary care",
      "phone": "+1 312-780-9310",
      "url": "http://www.chicagoinhomevet.net/"
    },
    {
      "name": "Belmont Animal Hospital of Chicago",
      "address": "1212 W Belmont Ave",
      "phone": "+1 773-249-5787",
      "url": "http://belmontanimal.com/",
      "zip": "60657"
    },
    {
      "name": "South Loop Animal Hospital",
      "address": "1640 S Michigan Ave",
      "phone": "+1 312-753-5551",
      "url": "https://mysouthloopvet.com/?utm_source=google&utm_medium=organic&utm_campaign=gmb&utm_term=website",
      "zip": "60616"
    },
    {
      "name": "Boulevard Veterinary River North",
      "address": "375 W Erie St",
      "phone": "+1 773-360-1731",
      "url": "http://www.blvd.vet/",
      "zip": "60654"
    },
    {
      "name": "Roscoe Village Animal Hospital",
      "address": "3131 N Clybourn Ave",
      "phone": "+1 773-549-3131",
      "url": "http://www.roscoevillageanimalhospital.com/",
      "zip": "60618"
    },
    {
      "name": "Ravenswood Animal Hospital LLC",
      "address": "2752 W Montrose Ave",
      "phone": "+1 773-539-7387",
      "url": "http://www.ravenswoodvet.com/",
      "zip": "60618"
    },
    {
      "name": "Boulevard Veterinary Logan Square",
      "address": "2740 W Armitage Ave A",
      "phone": "+1 773-360-1731",
      "url": "http://www.blvd.vet/",
      "zip": "60647"
    },
    {
      "name": "Oz Animal Hospital Lincoln Park",
      "address": "620 W Webster Ave",
      "phone": "+1 773-327-5024",
      "url": "http://www.ozanimalhospital.com/",
      "zip": "60614"
    },
    {
      "name": "Metropolitan Veterinary Center",
      "address": "1556 S Michigan Ave",
      "phone": "+1 312-583-1921",
      "url": "http://www.metrovetchicago.com/",
      "zip": "60605"
    },
    {
      "name": "East Side Veterinary Clinic",
      "address": "333 E Benton Pl Suite 205 Â· In Lakeshore East",
      "phone": "+1 312-585-7825",
      "url": "http://www.myeastsidevet.com/",
      "zip": "60601"
    },
    {
      "name": "Village West Veterinary",
      "address": "840 N Western Ave",
      "phone": "+1 773-697-7052",
      "url": "https://www.villagewestvet.com/",
      "zip": "60622"
    },
    {
      "name": "North Center Animal Hospital",
      "address": "1808 W Addison St",
      "phone": "+1 773-327-5050",
      "url": "https://www.northcenteranimalhospital.com/",
      "zip": "60613"
    },
    {
      "name": "Lincoln Square Animal Hospital",
      "address": "4501 N Lincoln Ave",
      "phone": "+1 773-271-1901",
      "url": "http://www.lincolnsquareanimalhospital.com/",
      "zip": "60625"
    },
    {
      "name": "North Avenue Animal Hospital",
      "address": "1901 W North Ave",
      "phone": "+1 773-278-1330",
      "url": "http://www.northavevet.com/",
      "zip": "60622"
    },
    {
      "name": "Pershing Animal Hospital",
      "address": "1515 E Hyde Park Blvd",
      "phone": "+1 773-288-8888",
      "url": "https://www.pershinganimalhospital.com/",
      "zip": "60615"
    },
    {
      "name": "Animal Advocate Pet Hospital",
      "address": "1061 W Jackson Blvd ste a",
      "phone": "+1 312-471-1728",
      "url": "http://advocatepetvet.com/",
      "zip": "60607"
    },
    {
      "name": "Chicago Cat Clinic",
      "address": "5301 W Devon Ave",
      "phone": "+1 773-631-5300",
      "url": "https://chicagocatclinic.com/",
      "zip": "60646"
    }
  ]
}